{"type":"FeatureCollection","features":[{"type":"Feature","properties":{"name":"Pomona"},"geometry":{"type":"Polygon","coordinates":[[[-117.82859,34.03786],[-117.82872,34.03763],[-117.82855,34.03763],[-117.82825,34.03763],[-117.82789,34.03762],[-117.82746,34.03762],[-117.82724,34.03762],[-117.82688,34.03762],[-117.82598,34.03762],[-117.8252,34.03762],[-117.82461,34.03762],[-117.8247,34.03746],[-117.82486,34.03718],[-117.82502,34.03681],[-117.8251,34.03663],[-117.82511,34.03655],[-117.82512,34.03643],[-117.82513,34.03631],[-117.82513,34.03617],[-117.82512,34.03605],[-117.82511,34.03575],[-117.82511,34.03566],[-117.8251,34.03517],[-117.82509,34.03489],[-117.82508,34.03465],[-117.8251,34.03442],[-117.82512,34.03432],[-117.82514,34.03418],[-117.8252,34.034],[-117.82523,34.0339],[-117.82525,34.03386],[-117.8253,34.03375],[-117.82534,34.03366],[-117.82537,34.0336],[-117.82541,34.03354],[-117.82546,34.03345],[-117.82552,34.03337],[-117.82556,34.0333],[-117.82559,34.03326],[-117.82563,34.03323],[-117.82569,34.03323],[-117.82571,34.03318],[-117.82581,34.03302],[-117.82653,34.03225],[-117.82666,34.03211],[-117.8268,34.03198],[-117.82694,34.03185],[-117.82717,34.03164],[-117.82721,34.0316],[-117.82731,34.03153],[-117.82745,34.03142],[-117.82764,34.03129],[-117.82782,34.03117],[-117.82804,34.03104],[-117.82816,34.03098],[-117.82813,34.03094],[-117.82805,34.03083],[-117.82799,34.03076],[-117.82772,34.03061],[-117.82729,34.03073],[-117.8267,34.03089],[-117.8265,34.03147],[-117.82608,34.03166],[-117.8259,34.03175],[-117.82526,34.03204],[-117.82521,34.03207],[-117.82509,34.03213],[-117.825,34.03216],[-117.8247,34.03227],[-117.82379,34.03344],[-117.82367,34.03333],[-117.82356,34.03322],[-117.82224,34.03197],[-117.82196,34.0317],[-117.82187,34.03162],[-117.82176,34.03151],[-117.82159,34.03133],[-117.82153,34.03126],[-117.82148,34.03121],[-117.8201,34.03261],[-117.81832,34.03442],[-117.8182,34.03434],[-117.81807,34.03425],[-117.81785,34.0341],[-117.81745,34.03383],[-117.81741,34.03381],[-117.81715,34.03364],[-117.8169,34.03347],[-117.81671,34.03334],[-117.81646,34.03317],[-117.81624,34.03303],[-117.81586,34.03277],[-117.81547,34.0325],[-117.815,34.03219],[-117.81459,34.03191],[-117.81417,34.03163],[-117.81377,34.03136],[-117.81336,34.03108],[-117.81294,34.0308],[-117.81254,34.03053],[-117.81215,34.03027],[-117.81205,34.0302],[-117.81193,34.03012],[-117.81175,34.03001],[-117.81173,34.02999],[-117.81127,34.02969],[-117.81124,34.02968],[-117.81108,34.02956],[-117.81088,34.02943],[-117.81071,34.02932],[-117.81049,34.02972],[-117.81025,34.03015],[-117.81004,34.03048],[-117.80975,34.03091],[-117.80934,34.03152],[-117.80856,34.03266],[-117.80826,34.03309],[-117.8081,34.03336],[-117.80756,34.03413],[-117.80691,34.0351],[-117.80586,34.03653],[-117.80559,34.03691],[-117.80572,34.03703],[-117.80353,34.03967],[-117.80292,34.0403],[-117.80291,34.04031],[-117.80244,34.04097],[-117.80225,34.04136],[-117.80222,34.04143],[-117.80202,34.04173],[-117.80194,34.04196],[-117.80174,34.04246],[-117.80171,34.04254],[-117.80163,34.04288],[-117.80134,34.04269],[-117.80131,34.04267],[-117.80108,34.04252],[-117.80082,34.04236],[-117.79993,34.0418],[-117.79986,34.04175],[-117.79967,34.04163],[-117.79842,34.04084],[-117.7982,34.0406],[-117.79817,34.04056],[-117.79813,34.04053],[-117.79812,34.04051],[-117.7979,34.04026],[-117.79757,34.03989],[-117.79717,34.03946],[-117.79698,34.03928],[-117.79679,34.03911],[-117.79676,34.03908],[-117.79654,34.0389],[-117.79637,34.03877],[-117.79633,34.03874],[-117.79629,34.0387],[-117.79608,34.03856],[-117.79567,34.03829],[-117.79542,34.03815],[-117.79531,34.03808],[-117.79507,34.03796],[-117.79473,34.03779],[-117.7945,34.03768],[-117.7943,34.0376],[-117.79423,34.03758],[-117.79377,34.03741],[-117.79357,34.03735],[-117.79351,34.03733],[-117.79341,34.0373],[-117.79301,34.03719],[-117.79259,34.0371],[-117.79248,34.03708],[-117.79242,34.03703],[-117.79237,34.037],[-117.79231,34.03696],[-117.79227,34.03693],[-117.79033,34.03571],[-117.79022,34.03563],[-117.78879,34.03473],[-117.78703,34.03361],[-117.78647,34.03325],[-117.78626,34.03312],[-117.78518,34.03243],[-117.78517,34.0282],[-117.78517,34.02727],[-117.78517,34.02669],[-117.78517,34.02614],[-117.78505,34.02613],[-117.7842,34.02579],[-117.78387,34.02577],[-117.78276,34.02596],[-117.78253,34.026],[-117.78244,34.02604],[-117.78208,34.02587],[-117.78203,34.02585],[-117.78167,34.02569],[-117.78133,34.02554],[-117.78099,34.02538],[-117.77979,34.02484],[-117.77572,34.02302],[-117.77432,34.02239],[-117.77423,34.02235],[-117.77421,34.02234],[-117.77396,34.02222],[-117.77139,34.02107],[-117.77038,34.02061],[-117.76909,34.02003],[-117.76874,34.01988],[-117.76775,34.01943],[-117.76765,34.01939],[-117.76765,34.01961],[-117.76765,34.02085],[-117.76766,34.02195],[-117.76766,34.02322],[-117.76766,34.02351],[-117.76763,34.02351],[-117.76659,34.02335],[-117.76623,34.02329],[-117.76487,34.02308],[-117.76092,34.02246],[-117.7594,34.02223],[-117.75807,34.02211],[-117.75787,34.02207],[-117.75676,34.0219],[-117.75645,34.02185],[-117.75595,34.02177],[-117.75552,34.02171],[-117.75534,34.02167],[-117.75524,34.02165],[-117.75517,34.02163],[-117.75457,34.0215],[-117.75455,34.0215],[-117.75444,34.02148],[-117.75432,34.02146],[-117.75373,34.02137],[-117.75347,34.02134],[-117.75202,34.02114],[-117.75199,34.02113],[-117.7519,34.02112],[-117.75187,34.02111],[-117.75171,34.02109],[-117.75155,34.02104],[-117.75128,34.02097],[-117.75036,34.02084],[-117.74886,34.02058],[-117.74884,34.02057],[-117.74789,34.02042],[-117.74662,34.02022],[-117.74654,34.02021],[-117.74649,34.0202],[-117.74642,34.02018],[-117.74634,34.02017],[-117.74625,34.02016],[-117.74617,34.02015],[-117.74608,34.02013],[-117.746,34.02012],[-117.74596,34.02011],[-117.74542,34.02002],[-117.74538,34.02002],[-117.74506,34.01997],[-117.74499,34.01995],[-117.74469,34.01991],[-117.74439,34.01986],[-117.74434,34.01985],[-117.74431,34.01985],[-117.74409,34.01981],[-117.74407,34.01981],[-117.744,34.0198],[-117.74367,34.01976],[-117.74353,34.01974],[-117.74304,34.01968],[-117.74228,34.01956],[-117.7405,34.01928],[-117.74002,34.01921],[-117.73986,34.01918],[-117.73951,34.01912],[-117.73939,34.0191],[-117.73688,34.01871],[-117.73622,34.01861],[-117.7361,34.01859],[-117.73598,34.01858],[-117.73585,34.01855],[-117.73559,34.01868],[-117.73534,34.0188],[-117.73524,34.01885],[-117.73404,34.01944],[-117.73331,34.0198],[-117.73189,34.02051],[-117.73172,34.02059],[-117.73166,34.02061],[-117.73153,34.02068],[-117.73134,34.02077],[-117.73129,34.0208],[-117.73012,34.02137],[-117.72997,34.02224],[-117.7297,34.02385],[-117.72963,34.02422],[-117.72958,34.02455],[-117.72956,34.02462],[-117.72951,34.0249],[-117.72948,34.02514],[-117.72944,34.02533],[-117.72942,34.02546],[-117.72942,34.02548],[-117.72934,34.02592],[-117.72929,34.02629],[-117.72897,34.0279],[-117.72897,34.02792],[-117.72896,34.02804],[-117.72896,34.02812],[-117.72868,34.02977],[-117.72868,34.02984],[-117.72865,34.02992],[-117.72863,34.03004],[-117.72862,34.03009],[-117.7286,34.03019],[-117.72858,34.03029],[-117.72829,34.03199],[-117.72806,34.03335],[-117.72803,34.03353],[-117.72801,34.03363],[-117.72799,34.03372],[-117.72792,34.03417],[-117.72787,34.03436],[-117.72775,34.03515],[-117.72774,34.03519],[-117.72762,34.03587],[-117.72751,34.03653],[-117.72737,34.03733],[-117.72736,34.03739],[-117.72731,34.03753],[-117.72662,34.03945],[-117.7266,34.03951],[-117.72652,34.03973],[-117.7264,34.04004],[-117.7264,34.04006],[-117.72619,34.04063],[-117.72601,34.04113],[-117.72558,34.04232],[-117.72524,34.04326],[-117.72505,34.0438],[-117.72476,34.04461],[-117.72466,34.04487],[-117.72443,34.04552],[-117.7244,34.0456],[-117.72401,34.04667],[-117.72359,34.04786],[-117.72336,34.0485],[-117.72325,34.0488],[-117.72242,34.05109],[-117.72203,34.05218],[-117.72143,34.05383],[-117.7207,34.05586],[-117.71939,34.05948],[-117.71935,34.05958],[-117.7193,34.05974],[-117.71807,34.06317],[-117.71776,34.064],[-117.71773,34.06408],[-117.71713,34.06575],[-117.71672,34.06689],[-117.71648,34.06758],[-117.71633,34.06792],[-117.71613,34.06836],[-117.71526,34.07034],[-117.71514,34.07062],[-117.7147,34.07163],[-117.71354,34.07426],[-117.7133,34.0748],[-117.71282,34.07589],[-117.7125,34.07662],[-117.71242,34.07682],[-117.71228,34.07713],[-117.71201,34.07775],[-117.71196,34.07785],[-117.71183,34.07815],[-117.7118,34.07822],[-117.71156,34.07871],[-117.71123,34.0794],[-117.7112,34.07948],[-117.71117,34.07954],[-117.71398,34.07953],[-117.71412,34.07953],[-117.71487,34.07953],[-117.71522,34.07953],[-117.71574,34.07953],[-117.71576,34.07953],[-117.71656,34.07953],[-117.71658,34.07953],[-117.71822,34.07952],[-117.71925,34.07952],[-117.71936,34.07952],[-117.7219,34.07951],[-117.72211,34.07951],[-117.72217,34.07951],[-117.72241,34.07951],[-117.72273,34.0795],[-117.728,34.07948],[-117.728,34.07953],[-117.728,34.07967],[-117.728,34.08051],[-117.728,34.08089],[-117.728,34.08121],[-117.728,34.08124],[-117.728,34.08139],[-117.728,34.08145],[-117.728,34.08153],[-117.728,34.08172],[-117.72801,34.08198],[-117.72801,34.0825],[-117.728,34.08304],[-117.728,34.08381],[-117.728,34.08507],[-117.728,34.08514],[-117.728,34.0856],[-117.728,34.08699],[-117.72799,34.08715],[-117.72798,34.09034],[-117.72798,34.09036],[-117.72798,34.09039],[-117.72798,34.09042],[-117.72853,34.09041],[-117.72962,34.09039],[-117.73038,34.09037],[-117.73056,34.09036],[-117.73072,34.09036],[-117.73132,34.09035],[-117.73199,34.09033],[-117.73223,34.09033],[-117.73234,34.09033],[-117.73236,34.09372],[-117.73236,34.09399],[-117.73235,34.09424],[-117.73235,34.09622],[-117.73231,34.09622],[-117.73237,34.09692],[-117.73238,34.09748],[-117.73239,34.09795],[-117.73241,34.09872],[-117.73242,34.09873],[-117.73252,34.09873],[-117.73339,34.09876],[-117.73344,34.09876],[-117.73465,34.0988],[-117.73492,34.0988],[-117.73517,34.09881],[-117.73608,34.09884],[-117.73679,34.09886],[-117.73679,34.09965],[-117.73679,34.10035],[-117.73679,34.10042],[-117.7368,34.10149],[-117.7368,34.10307],[-117.7368,34.1031],[-117.7368,34.10339],[-117.73749,34.1034],[-117.73749,34.10388],[-117.73793,34.10379],[-117.73991,34.10378],[-117.73991,34.10407],[-117.73993,34.1041],[-117.73996,34.10416],[-117.74,34.10423],[-117.74,34.10429],[-117.74001,34.10584],[-117.73993,34.10593],[-117.73986,34.10601],[-117.73986,34.10613],[-117.73985,34.10632],[-117.73886,34.1063],[-117.73886,34.10621],[-117.73887,34.10615],[-117.73886,34.10609],[-117.73882,34.10609],[-117.73865,34.1061],[-117.73861,34.1061],[-117.73742,34.1061],[-117.73743,34.1059],[-117.73743,34.10573],[-117.73739,34.1057],[-117.73739,34.10567],[-117.73734,34.10567],[-117.7372,34.10558],[-117.7372,34.10556],[-117.73719,34.10518],[-117.73681,34.10519],[-117.73681,34.10567],[-117.73681,34.10571],[-117.73681,34.10617],[-117.73681,34.10641],[-117.73682,34.10703],[-117.73682,34.10709],[-117.73682,34.10715],[-117.73682,34.10736],[-117.73681,34.10762],[-117.73681,34.10777],[-117.73682,34.10822],[-117.73682,34.10923],[-117.73682,34.10924],[-117.73682,34.10949],[-117.73682,34.10981],[-117.73682,34.10985],[-117.73681,34.11068],[-117.73681,34.11084],[-117.73716,34.11091],[-117.73742,34.11091],[-117.73753,34.11077],[-117.73758,34.11072],[-117.7376,34.11071],[-117.73784,34.11072],[-117.73808,34.11072],[-117.73834,34.11073],[-117.73843,34.11073],[-117.73849,34.11073],[-117.73854,34.11073],[-117.73886,34.11074],[-117.73898,34.11074],[-117.73899,34.1107],[-117.73899,34.11022],[-117.73901,34.11013],[-117.739,34.10994],[-117.73901,34.1086],[-117.73901,34.10833],[-117.73901,34.10814],[-117.7397,34.10815],[-117.73978,34.10813],[-117.7399,34.1081],[-117.74089,34.10811],[-117.74116,34.10811],[-117.74119,34.10819],[-117.74116,34.10819],[-117.74116,34.10862],[-117.7421,34.10863],[-117.7421,34.10901],[-117.7421,34.10921],[-117.7421,34.10936],[-117.7421,34.10948],[-117.7421,34.10976],[-117.7421,34.11023],[-117.74209,34.11035],[-117.74209,34.11053],[-117.74208,34.11079],[-117.74518,34.11081],[-117.74534,34.11082],[-117.74534,34.11061],[-117.74534,34.11036],[-117.74534,34.10934],[-117.74534,34.10918],[-117.74533,34.10838],[-117.74533,34.10832],[-117.74533,34.10824],[-117.74533,34.10819],[-117.74559,34.10819],[-117.74637,34.10819],[-117.74637,34.10868],[-117.74637,34.10945],[-117.74637,34.10952],[-117.74641,34.10952],[-117.74649,34.10952],[-117.7465,34.10952],[-117.74653,34.10952],[-117.74655,34.10952],[-117.74659,34.10952],[-117.74661,34.10952],[-117.74668,34.10952],[-117.74674,34.10952],[-117.74681,34.10952],[-117.74688,34.10952],[-117.7474,34.10952],[-117.74768,34.10952],[-117.74778,34.10952],[-117.74783,34.10952],[-117.74799,34.10952],[-117.74801,34.10952],[-117.74826,34.10952],[-117.74841,34.10952],[-117.7485,34.10952],[-117.74853,34.10953],[-117.74853,34.10955],[-117.74853,34.10996],[-117.74853,34.11017],[-117.74853,34.1108],[-117.74853,34.11084],[-117.74853,34.11106],[-117.74853,34.11114],[-117.74853,34.11126],[-117.74853,34.11185],[-117.74854,34.112],[-117.74854,34.11226],[-117.74854,34.11239],[-117.74854,34.1126],[-117.74994,34.1126],[-117.75004,34.1126],[-117.75004,34.11232],[-117.75004,34.11226],[-117.75004,34.11224],[-117.75004,34.11215],[-117.75004,34.11207],[-117.75004,34.11199],[-117.75004,34.11191],[-117.75004,34.11182],[-117.75004,34.11174],[-117.75004,34.11164],[-117.75004,34.11159],[-117.75004,34.11143],[-117.75004,34.11129],[-117.75004,34.11123],[-117.75004,34.11117],[-117.75004,34.11103],[-117.75005,34.11084],[-117.74998,34.11084],[-117.74998,34.11081],[-117.74998,34.11075],[-117.74998,34.11055],[-117.75005,34.11055],[-117.75005,34.11017],[-117.75005,34.10964],[-117.75061,34.10964],[-117.75061,34.10942],[-117.75061,34.10915],[-117.75061,34.10893],[-117.75061,34.10877],[-117.75061,34.10851],[-117.7507,34.10854],[-117.75081,34.10857],[-117.75095,34.10862],[-117.75103,34.10865],[-117.75148,34.1088],[-117.75168,34.10887],[-117.752,34.10897],[-117.75222,34.10904],[-117.75286,34.10926],[-117.75318,34.10936],[-117.75368,34.10953],[-117.75407,34.10967],[-117.75438,34.10978],[-117.7551,34.11001],[-117.75567,34.1102],[-117.75621,34.11037],[-117.75621,34.11031],[-117.7562,34.10979],[-117.7562,34.10956],[-117.75619,34.10872],[-117.75618,34.10831],[-117.75616,34.1069],[-117.75616,34.10688],[-117.75616,34.10685],[-117.75616,34.10676],[-117.75616,34.1067],[-117.75616,34.10663],[-117.75616,34.1066],[-117.75616,34.10657],[-117.75616,34.10647],[-117.75616,34.10639],[-117.75615,34.10623],[-117.75615,34.10621],[-117.75615,34.10604],[-117.75615,34.10598],[-117.75615,34.10586],[-117.75615,34.10581],[-117.75615,34.10568],[-117.75615,34.10565],[-117.75615,34.10562],[-117.75614,34.10549],[-117.75614,34.10547],[-117.75614,34.10535],[-117.75614,34.10532],[-117.75614,34.10514],[-117.75614,34.10511],[-117.75614,34.10509],[-117.75614,34.10496],[-117.75614,34.1049],[-117.75614,34.10478],[-117.75613,34.10473],[-117.75613,34.1046],[-117.75613,34.10456],[-117.75613,34.10442],[-117.75613,34.10438],[-117.75613,34.10424],[-117.75613,34.10414],[-117.75613,34.10406],[-117.75612,34.10388],[-117.75612,34.10387],[-117.75612,34.10382],[-117.75612,34.1037],[-117.75612,34.10355],[-117.75613,34.10342],[-117.75612,34.10307],[-117.75612,34.10263],[-117.75612,34.10231],[-117.75612,34.10223],[-117.75611,34.10149],[-117.7561,34.10122],[-117.7561,34.10102],[-117.7561,34.101],[-117.7561,34.10048],[-117.7561,34.10005],[-117.7561,34.10004],[-117.7561,34.09967],[-117.7561,34.09952],[-117.7561,34.09944],[-117.7561,34.0994],[-117.75611,34.09933],[-117.75612,34.09929],[-117.75616,34.09916],[-117.75623,34.09896],[-117.75626,34.0989],[-117.75639,34.09872],[-117.75644,34.09866],[-117.75621,34.09863],[-117.75619,34.09862],[-117.75612,34.09857],[-117.75611,34.09856],[-117.75609,34.09855],[-117.75609,34.09836],[-117.75597,34.09836],[-117.75598,34.09835],[-117.75599,34.09833],[-117.75599,34.09831],[-117.756,34.0983],[-117.75601,34.09828],[-117.75601,34.09826],[-117.75602,34.09825],[-117.75603,34.09823],[-117.75603,34.09822],[-117.75604,34.0982],[-117.75604,34.09818],[-117.75605,34.09817],[-117.75605,34.09815],[-117.75606,34.09814],[-117.75606,34.09812],[-117.75606,34.0981],[-117.75607,34.09809],[-117.75607,34.09807],[-117.75607,34.09805],[-117.75607,34.09803],[-117.75607,34.09791],[-117.75612,34.09792],[-117.75612,34.0971],[-117.75612,34.09706],[-117.75612,34.09583],[-117.75612,34.0958],[-117.75612,34.09535],[-117.75612,34.09533],[-117.75613,34.09433],[-117.75613,34.09428],[-117.75613,34.09424],[-117.75613,34.09416],[-117.75613,34.09382],[-117.75612,34.0938],[-117.75612,34.09374],[-117.75612,34.09338],[-117.75612,34.09295],[-117.75612,34.0929],[-117.75612,34.09276],[-117.75613,34.09238],[-117.75613,34.09188],[-117.75613,34.09003],[-117.75613,34.08997],[-117.75648,34.08996],[-117.75694,34.08997],[-117.75701,34.08998],[-117.75733,34.09002],[-117.75748,34.09005],[-117.75768,34.09009],[-117.75806,34.0902],[-117.75816,34.09024],[-117.75822,34.09026],[-117.75853,34.09047],[-117.75862,34.09052],[-117.75876,34.09062],[-117.75901,34.09078],[-117.75935,34.091],[-117.75982,34.09131],[-117.76005,34.09146],[-117.76018,34.09155],[-117.76032,34.09164],[-117.76037,34.09168],[-117.7609,34.09202],[-117.76177,34.09259],[-117.76211,34.09281],[-117.76213,34.09278],[-117.76223,34.09266],[-117.76292,34.09173],[-117.76305,34.09155],[-117.76316,34.09139],[-117.7634,34.09106],[-117.7635,34.09092],[-117.76372,34.09065],[-117.7641,34.09013],[-117.76416,34.09003],[-117.76427,34.0899],[-117.76439,34.08972],[-117.76445,34.08964],[-117.76447,34.08969],[-117.76508,34.09122],[-117.76545,34.09214],[-117.76555,34.0924],[-117.76569,34.0927],[-117.7658,34.0929],[-117.76592,34.09309],[-117.76611,34.09336],[-117.76632,34.09363],[-117.76643,34.09376],[-117.76661,34.09395],[-117.76671,34.09404],[-117.76682,34.09415],[-117.76693,34.09425],[-117.76704,34.09434],[-117.7672,34.09446],[-117.76736,34.09458],[-117.76752,34.09469],[-117.76784,34.09492],[-117.76803,34.09499],[-117.76839,34.09517],[-117.76874,34.09532],[-117.76909,34.09544],[-117.76943,34.09554],[-117.76975,34.09564],[-117.76983,34.09566],[-117.76986,34.09567],[-117.76998,34.0957],[-117.77003,34.09555],[-117.77014,34.09532],[-117.77018,34.09526],[-117.77024,34.09513],[-117.77069,34.09449],[-117.77097,34.0941],[-117.77103,34.09401],[-117.77112,34.09389],[-117.77158,34.09327],[-117.7719,34.09285],[-117.77193,34.0928],[-117.77203,34.09268],[-117.77213,34.09254],[-117.77227,34.09234],[-117.77233,34.09224],[-117.77247,34.09205],[-117.77563,34.08779],[-117.7758,34.08755],[-117.77583,34.0875],[-117.77605,34.0872],[-117.77657,34.0865],[-117.77659,34.08647],[-117.77666,34.08638],[-117.77672,34.08629],[-117.77681,34.08617],[-117.77723,34.08638],[-117.77766,34.08664],[-117.77899,34.08734],[-117.77989,34.08786],[-117.78023,34.08805],[-117.78044,34.08813],[-117.78089,34.08826],[-117.78105,34.0883],[-117.78146,34.08841],[-117.7818,34.08849],[-117.78314,34.08883],[-117.78369,34.08898],[-117.78395,34.08905],[-117.78404,34.08907],[-117.78421,34.08859],[-117.78493,34.08852],[-117.78504,34.08833],[-117.78543,34.08847],[-117.78682,34.08835],[-117.78686,34.08806],[-117.78596,34.08623],[-117.78578,34.08586],[-117.7854,34.08509],[-117.78408,34.0849],[-117.78204,34.08539],[-117.7818,34.08501],[-117.78115,34.08401],[-117.78097,34.08373],[-117.78114,34.08358],[-117.78174,34.08302],[-117.78281,34.08202],[-117.78314,34.08171],[-117.78322,34.08163],[-117.78388,34.08103],[-117.7838,34.081],[-117.78365,34.08093],[-117.78348,34.08085],[-117.78291,34.0806],[-117.78089,34.0797],[-117.78052,34.07952],[-117.78033,34.07941],[-117.78019,34.07932],[-117.77974,34.0791],[-117.77979,34.07902],[-117.78045,34.0779],[-117.78051,34.0778],[-117.78053,34.07778],[-117.7806,34.07769],[-117.78068,34.07759],[-117.78076,34.0775],[-117.78084,34.07742],[-117.78094,34.07734],[-117.78102,34.07727],[-117.78113,34.07719],[-117.78124,34.07712],[-117.78136,34.07706],[-117.78148,34.077],[-117.7816,34.07694],[-117.78173,34.0769],[-117.78187,34.07685],[-117.782,34.07682],[-117.78214,34.07679],[-117.78276,34.07667],[-117.7828,34.07666],[-117.78291,34.07664],[-117.78312,34.07659],[-117.78334,34.07653],[-117.78355,34.07646],[-117.78376,34.07639],[-117.78397,34.07632],[-117.78418,34.07623],[-117.78438,34.07614],[-117.78457,34.07604],[-117.78476,34.07594],[-117.78484,34.0759],[-117.78495,34.07583],[-117.78502,34.07579],[-117.78505,34.07577],[-117.78522,34.07566],[-117.78539,34.07554],[-117.78554,34.07543],[-117.78622,34.0749],[-117.78659,34.07461],[-117.78679,34.07445],[-117.78719,34.07427],[-117.78762,34.07378],[-117.78764,34.07377],[-117.78822,34.0736],[-117.78942,34.07285],[-117.7904,34.07276],[-117.79079,34.07258],[-117.79119,34.07233],[-117.7917,34.0722],[-117.79222,34.07222],[-117.79264,34.07207],[-117.79328,34.0719],[-117.79389,34.07161],[-117.79416,34.07163],[-117.79487,34.0713],[-117.79501,34.07089],[-117.79505,34.07078],[-117.79557,34.07054],[-117.79562,34.07063],[-117.79583,34.07053],[-117.79577,34.07045],[-117.7967,34.07002],[-117.79703,34.06992],[-117.7972,34.0698],[-117.79788,34.06948],[-117.79818,34.06963],[-117.7983,34.06961],[-117.7983,34.06958],[-117.7983,34.06954],[-117.79818,34.06934],[-117.79905,34.06895],[-117.79944,34.06889],[-117.79949,34.06886],[-117.79987,34.06864],[-117.80015,34.06849],[-117.80058,34.06824],[-117.80066,34.0682],[-117.80136,34.06788],[-117.80187,34.06773],[-117.80262,34.06744],[-117.80285,34.06735],[-117.80335,34.0674],[-117.80339,34.06741],[-117.80351,34.06743],[-117.80431,34.06726],[-117.8045,34.06716],[-117.80459,34.06712],[-117.80483,34.06694],[-117.80485,34.06689],[-117.80513,34.06636],[-117.80528,34.06621],[-117.80529,34.06619],[-117.80622,34.06573],[-117.80625,34.06572],[-117.80653,34.06558],[-117.80654,34.06558],[-117.80656,34.06557],[-117.80673,34.06549],[-117.80708,34.06532],[-117.80738,34.06518],[-117.80732,34.06508],[-117.8073,34.06502],[-117.80798,34.06478],[-117.80873,34.06456],[-117.80937,34.0644],[-117.81007,34.06424],[-117.8108,34.06411],[-117.81154,34.064],[-117.81178,34.06398],[-117.812,34.06395],[-117.81223,34.06393],[-117.81247,34.06391],[-117.81272,34.06389],[-117.81291,34.06388],[-117.81741,34.06369],[-117.81786,34.06367],[-117.81832,34.06366],[-117.81851,34.06366],[-117.81874,34.06366],[-117.81882,34.06357],[-117.81896,34.0634],[-117.81864,34.06336],[-117.81772,34.06323],[-117.81752,34.06324],[-117.81721,34.06312],[-117.81637,34.06316],[-117.81503,34.06319],[-117.81406,34.06323],[-117.81362,34.06329],[-117.81329,34.06327],[-117.81278,34.06312],[-117.81229,34.06306],[-117.81212,34.06313],[-117.8121,34.0631],[-117.81208,34.06307],[-117.81208,34.06306],[-117.81208,34.06304],[-117.81197,34.06305],[-117.81194,34.06305],[-117.81189,34.06306],[-117.81178,34.06306],[-117.81181,34.06327],[-117.81155,34.06337],[-117.81152,34.06337],[-117.81142,34.06334],[-117.81135,34.06333],[-117.81135,34.06326],[-117.81123,34.06326],[-117.81101,34.06325],[-117.80994,34.06313],[-117.80868,34.063],[-117.8085,34.06296],[-117.80835,34.06291],[-117.80821,34.06285],[-117.808,34.06277],[-117.80776,34.06264],[-117.8076,34.06253],[-117.80749,34.06245],[-117.8073,34.06228],[-117.80716,34.06214],[-117.80699,34.06192],[-117.80693,34.06181],[-117.80571,34.05954],[-117.80559,34.05927],[-117.80558,34.0592],[-117.80654,34.05891],[-117.80733,34.05864],[-117.80785,34.05845],[-117.80786,34.05847],[-117.80796,34.05853],[-117.80828,34.05873],[-117.80909,34.05923],[-117.80969,34.05959],[-117.81238,34.06124],[-117.81255,34.06118],[-117.81714,34.0579],[-117.81721,34.05785],[-117.81742,34.05771],[-117.81776,34.05746],[-117.81867,34.05682],[-117.81894,34.05662],[-117.8191,34.0565],[-117.81918,34.05645],[-117.81923,34.05642],[-117.81926,34.0564],[-117.81933,34.05635],[-117.81942,34.0563],[-117.81952,34.05624],[-117.81982,34.05603],[-117.81986,34.05599],[-117.82035,34.05566],[-117.82049,34.05556],[-117.82083,34.05533],[-117.821,34.05516],[-117.82105,34.05512],[-117.82115,34.05502],[-117.82101,34.05496],[-117.82092,34.05493],[-117.81579,34.05297],[-117.81594,34.05269],[-117.817,34.05079],[-117.81725,34.05038],[-117.82058,34.05171],[-117.82078,34.05178],[-117.82081,34.05183],[-117.82147,34.05065],[-117.82156,34.05049],[-117.82198,34.04972],[-117.82231,34.04913],[-117.8226,34.04861],[-117.82284,34.04817],[-117.82295,34.04799],[-117.82359,34.04683],[-117.82445,34.04529],[-117.82479,34.04468],[-117.8262,34.04215],[-117.82626,34.04204],[-117.82654,34.04153],[-117.82668,34.04129],[-117.82677,34.04111],[-117.82726,34.04024],[-117.82734,34.0401],[-117.82752,34.03977],[-117.82775,34.03937],[-117.82794,34.03904],[-117.82811,34.03873],[-117.82825,34.03848],[-117.82842,34.03816],[-117.82851,34.038],[-117.82859,34.03786]]]}}]}