{"type":"FeatureCollection","summary":{"pomona":{"households":42009,"no_internet":3820,"no_computer":1671,"no_internet_pct":9.1,"no_computer_pct":4.0,"tracts":31},"la_county":{"households":3390254,"no_internet":278250,"no_computer":132985,"no_internet_pct":8.2,"no_computer_pct":3.9}},"features":[{"type":"Feature","properties":{"geoid":"06037401706","tract":"4017.06","households":1710,"n":31,"no_internet":243,"no_internet_pct":14.2,"no_internet_rank":4,"no_internet_quartile":4,"no_internet_share":6.4,"no_computer":118,"no_computer_pct":6.9,"no_computer_rank":6,"no_computer_quartile":4,"no_computer_share":7.1},"geometry":{"type":"Polygon","coordinates":[[[-117.75639,34.09872],[-117.75644,34.09866],[-117.75621,34.09863],[-117.75619,34.09862],[-117.75612,34.09857],[-117.75611,34.09856],[-117.75609,34.09855],[-117.75609,34.09836],[-117.75597,34.09836],[-117.75598,34.09835],[-117.75599,34.09833],[-117.75599,34.09831],[-117.756,34.0983],[-117.75601,34.09828],[-117.75601,34.09826],[-117.75602,34.09825],[-117.75603,34.09823],[-117.75603,34.09822],[-117.75604,34.0982],[-117.75604,34.09818],[-117.75605,34.09817],[-117.75605,34.09815],[-117.75606,34.09814],[-117.75606,34.09812],[-117.75606,34.0981],[-117.75607,34.09809],[-117.75607,34.09807],[-117.75607,34.09805],[-117.75607,34.09803],[-117.75607,34.09791],[-117.75612,34.09792],[-117.75612,34.0971],[-117.75612,34.09706],[-117.75612,34.09583],[-117.75612,34.0958],[-117.75612,34.09535],[-117.75612,34.09533],[-117.75613,34.09433],[-117.75613,34.09428],[-117.75599,34.09426],[-117.75595,34.09425],[-117.7556,34.0942],[-117.75522,34.09415],[-117.75485,34.09411],[-117.75407,34.09406],[-117.75397,34.09405],[-117.75346,34.09403],[-117.75194,34.09401],[-117.74914,34.09402],[-117.749,34.09402],[-117.74857,34.09402],[-117.74857,34.09413],[-117.74858,34.09624],[-117.74858,34.09921],[-117.74858,34.10094],[-117.74859,34.10163],[-117.74858,34.1017],[-117.74858,34.10221],[-117.74859,34.10263],[-117.74859,34.1032],[-117.74859,34.10458],[-117.7486,34.1049],[-117.74859,34.105],[-117.74859,34.10512],[-117.74859,34.10601],[-117.7486,34.10637],[-117.74859,34.10682],[-117.7486,34.10727],[-117.7486,34.10784],[-117.74857,34.10783],[-117.74854,34.10915],[-117.74853,34.10953],[-117.74853,34.10955],[-117.74853,34.10996],[-117.74853,34.11017],[-117.74853,34.1108],[-117.74853,34.11084],[-117.74853,34.11106],[-117.74853,34.11114],[-117.74853,34.11126],[-117.74853,34.11185],[-117.74854,34.112],[-117.74854,34.11226],[-117.74854,34.11239],[-117.74854,34.1126],[-117.74994,34.1126],[-117.75004,34.1126],[-117.75004,34.11232],[-117.75004,34.11226],[-117.75004,34.11224],[-117.75004,34.11215],[-117.75004,34.11207],[-117.75004,34.11199],[-117.75004,34.11191],[-117.75004,34.11182],[-117.75004,34.11174],[-117.75004,34.11164],[-117.75004,34.11159],[-117.75004,34.11143],[-117.75004,34.11129],[-117.75004,34.11123],[-117.75004,34.11117],[-117.75004,34.11103],[-117.75005,34.11084],[-117.74998,34.11084],[-117.74998,34.11081],[-117.74998,34.11075],[-117.74998,34.11055],[-117.75005,34.11055],[-117.75005,34.11017],[-117.75005,34.10964],[-117.75061,34.10964],[-117.75061,34.10942],[-117.75061,34.10915],[-117.75061,34.10893],[-117.75061,34.10877],[-117.75061,34.10851],[-117.7507,34.10854],[-117.75081,34.10857],[-117.75095,34.10862],[-117.75103,34.10865],[-117.75148,34.1088],[-117.75168,34.10887],[-117.752,34.10897],[-117.75222,34.10904],[-117.75286,34.10926],[-117.75318,34.10936],[-117.75368,34.10953],[-117.75407,34.10967],[-117.75438,34.10978],[-117.7551,34.11001],[-117.75567,34.1102],[-117.75621,34.11037],[-117.75621,34.11031],[-117.7562,34.10979],[-117.7562,34.10956],[-117.75619,34.10872],[-117.75618,34.10831],[-117.75616,34.1069],[-117.75616,34.10688],[-117.75616,34.10685],[-117.75616,34.10676],[-117.75616,34.1067],[-117.75616,34.10663],[-117.75616,34.1066],[-117.75616,34.10657],[-117.75616,34.10647],[-117.75616,34.10639],[-117.75615,34.10623],[-117.75615,34.10621],[-117.75615,34.10604],[-117.75615,34.10598],[-117.75615,34.10586],[-117.75615,34.10581],[-117.75615,34.10568],[-117.75615,34.10565],[-117.75615,34.10562],[-117.75614,34.10549],[-117.75614,34.10547],[-117.75614,34.10535],[-117.75614,34.10532],[-117.75614,34.10514],[-117.75614,34.10511],[-117.75614,34.10509],[-117.75614,34.10496],[-117.75614,34.1049],[-117.75614,34.10478],[-117.75613,34.10473],[-117.75613,34.1046],[-117.75613,34.10456],[-117.75613,34.10442],[-117.75613,34.10438],[-117.75613,34.10424],[-117.75613,34.10414],[-117.75613,34.10406],[-117.75612,34.10388],[-117.75612,34.10387],[-117.75612,34.10382],[-117.75612,34.1037],[-117.75612,34.10355],[-117.75613,34.10342],[-117.75612,34.10307],[-117.75612,34.10263],[-117.75612,34.10231],[-117.75612,34.10223],[-117.75611,34.10149],[-117.7561,34.10122],[-117.7561,34.10102],[-117.7561,34.101],[-117.7561,34.10048],[-117.7561,34.10005],[-117.7561,34.10004],[-117.7561,34.09967],[-117.7561,34.09952],[-117.7561,34.09944],[-117.7561,34.0994],[-117.75611,34.09933],[-117.75612,34.09929],[-117.75616,34.09916],[-117.75623,34.09896],[-117.75626,34.0989],[-117.75639,34.09872]]]}},{"type":"Feature","properties":{"geoid":"06037401707","tract":"4017.07","households":2772,"n":31,"no_internet":352,"no_internet_pct":12.7,"no_internet_rank":7,"no_internet_quartile":4,"no_internet_share":9.2,"no_computer":220,"no_computer_pct":7.9,"no_computer_rank":4,"no_computer_quartile":4,"no_computer_share":13.2},"geometry":{"type":"Polygon","coordinates":[[[-117.74859,34.105],[-117.7486,34.1049],[-117.74859,34.10458],[-117.74859,34.1032],[-117.74859,34.10263],[-117.74858,34.10221],[-117.74858,34.1017],[-117.74859,34.10163],[-117.74858,34.10094],[-117.74858,34.09921],[-117.74858,34.09624],[-117.74857,34.09413],[-117.74857,34.09402],[-117.74777,34.09401],[-117.74545,34.09403],[-117.74457,34.09402],[-117.7435,34.09402],[-117.74291,34.09402],[-117.74227,34.09399],[-117.74121,34.094],[-117.73943,34.094],[-117.73678,34.09399],[-117.73672,34.09399],[-117.7346,34.09399],[-117.73236,34.09399],[-117.73235,34.09424],[-117.73235,34.09622],[-117.73231,34.09622],[-117.73237,34.09692],[-117.73238,34.09748],[-117.73239,34.09795],[-117.73241,34.09872],[-117.73242,34.09873],[-117.73252,34.09873],[-117.73339,34.09876],[-117.73344,34.09876],[-117.73465,34.0988],[-117.73492,34.0988],[-117.73517,34.09881],[-117.73608,34.09884],[-117.73679,34.09886],[-117.73679,34.09965],[-117.73679,34.10035],[-117.73679,34.10042],[-117.7368,34.10149],[-117.7368,34.10307],[-117.7368,34.1031],[-117.7368,34.10339],[-117.73681,34.10402],[-117.73681,34.10404],[-117.73681,34.10506],[-117.73681,34.10519],[-117.73681,34.10567],[-117.73681,34.10571],[-117.73681,34.10617],[-117.73681,34.10641],[-117.73682,34.10703],[-117.73682,34.10709],[-117.73682,34.10715],[-117.73682,34.10736],[-117.73681,34.10762],[-117.73681,34.10777],[-117.73682,34.10822],[-117.73682,34.10923],[-117.73682,34.10924],[-117.73682,34.10949],[-117.73682,34.10981],[-117.73682,34.10985],[-117.73681,34.11068],[-117.73681,34.11084],[-117.73716,34.11091],[-117.73742,34.11091],[-117.73753,34.11077],[-117.73758,34.11072],[-117.7376,34.11071],[-117.73784,34.11072],[-117.73808,34.11072],[-117.73834,34.11073],[-117.73843,34.11073],[-117.73849,34.11073],[-117.73854,34.11073],[-117.73886,34.11074],[-117.73898,34.11074],[-117.73899,34.1107],[-117.73899,34.11022],[-117.73901,34.11013],[-117.739,34.10994],[-117.73901,34.1086],[-117.73901,34.10833],[-117.73901,34.10814],[-117.7397,34.10815],[-117.73978,34.10813],[-117.7399,34.1081],[-117.74089,34.10811],[-117.74116,34.10811],[-117.74119,34.10819],[-117.74116,34.10819],[-117.74116,34.10862],[-117.7421,34.10863],[-117.7421,34.10901],[-117.7421,34.10921],[-117.7421,34.10936],[-117.7421,34.10948],[-117.7421,34.10976],[-117.7421,34.11023],[-117.74209,34.11035],[-117.74209,34.11053],[-117.74208,34.11079],[-117.74518,34.11081],[-117.74534,34.11082],[-117.74534,34.11061],[-117.74534,34.11036],[-117.74534,34.10934],[-117.74534,34.10918],[-117.74533,34.10838],[-117.74533,34.10832],[-117.74533,34.10824],[-117.74533,34.10819],[-117.74559,34.10819],[-117.74637,34.10819],[-117.74637,34.10868],[-117.74637,34.10945],[-117.74637,34.10952],[-117.74641,34.10952],[-117.74649,34.10952],[-117.7465,34.10952],[-117.74653,34.10952],[-117.74655,34.10952],[-117.74659,34.10952],[-117.74661,34.10952],[-117.74668,34.10952],[-117.74674,34.10952],[-117.74681,34.10952],[-117.74688,34.10952],[-117.7474,34.10952],[-117.74768,34.10952],[-117.74778,34.10952],[-117.74783,34.10952],[-117.74799,34.10952],[-117.74801,34.10952],[-117.74826,34.10952],[-117.74841,34.10952],[-117.7485,34.10952],[-117.74853,34.10953],[-117.74854,34.10915],[-117.74857,34.10783],[-117.7486,34.10784],[-117.7486,34.10727],[-117.74859,34.10682],[-117.7486,34.10637],[-117.74859,34.10601],[-117.74859,34.10512],[-117.74859,34.105]]]}},{"type":"Feature","properties":{"geoid":"06037402101","tract":"4021.01","households":1114,"n":31,"no_internet":66,"no_internet_pct":5.9,"no_internet_rank":23,"no_internet_quartile":2,"no_internet_share":1.7,"no_computer":24,"no_computer_pct":2.2,"no_computer_rank":19,"no_computer_quartile":2,"no_computer_share":1.4},"geometry":{"type":"Polygon","coordinates":[[[-117.74158,34.07815],[-117.74152,34.07818],[-117.73817,34.07955],[-117.73696,34.08005],[-117.73673,34.08014],[-117.73672,34.08015],[-117.73566,34.08058],[-117.73512,34.08079],[-117.73462,34.08096],[-117.7343,34.08105],[-117.7342,34.08108],[-117.73379,34.08118],[-117.73349,34.08124],[-117.73317,34.0813],[-117.73279,34.08135],[-117.73246,34.08139],[-117.73223,34.08141],[-117.73205,34.08142],[-117.73166,34.08144],[-117.73129,34.08144],[-117.72843,34.08145],[-117.728,34.08145],[-117.728,34.08153],[-117.728,34.08172],[-117.72801,34.08198],[-117.72801,34.0825],[-117.728,34.08304],[-117.728,34.08381],[-117.728,34.08507],[-117.728,34.08514],[-117.728,34.0856],[-117.728,34.08699],[-117.72799,34.08715],[-117.72798,34.09034],[-117.72798,34.09036],[-117.72798,34.09039],[-117.72798,34.09042],[-117.72853,34.09041],[-117.72962,34.09039],[-117.73038,34.09037],[-117.73056,34.09036],[-117.73072,34.09036],[-117.73132,34.09035],[-117.73199,34.09033],[-117.73223,34.09033],[-117.73234,34.09033],[-117.73236,34.09372],[-117.73236,34.09399],[-117.7346,34.09399],[-117.73672,34.09399],[-117.73678,34.09399],[-117.73678,34.09372],[-117.73679,34.09303],[-117.73679,34.09256],[-117.73679,34.09193],[-117.73679,34.09164],[-117.73679,34.0904],[-117.7368,34.09022],[-117.7368,34.09012],[-117.73679,34.08962],[-117.73679,34.08909],[-117.73682,34.08878],[-117.73688,34.08837],[-117.73693,34.08811],[-117.737,34.0878],[-117.73715,34.08733],[-117.73724,34.08711],[-117.73731,34.08694],[-117.73833,34.08478],[-117.73889,34.08359],[-117.73894,34.08347],[-117.73902,34.08332],[-117.73972,34.08215],[-117.73988,34.08186],[-117.73997,34.08166],[-117.74057,34.08031],[-117.74065,34.08015],[-117.74072,34.07997],[-117.74104,34.07931],[-117.7412,34.07895],[-117.74122,34.07892],[-117.74141,34.07852],[-117.74145,34.07844],[-117.74148,34.07837],[-117.7415,34.07833],[-117.74158,34.07815]]]}},{"type":"Feature","properties":{"geoid":"06037402102","tract":"4021.02","households":1348,"n":31,"no_internet":153,"no_internet_pct":11.4,"no_internet_rank":9,"no_internet_quartile":3,"no_internet_share":4.0,"no_computer":14,"no_computer_pct":1.0,"no_computer_rank":27,"no_computer_quartile":1,"no_computer_share":0.8},"geometry":{"type":"Polygon","coordinates":[[[-117.7529,34.08265],[-117.75288,34.08224],[-117.75285,34.082],[-117.75269,34.08073],[-117.75249,34.07905],[-117.75245,34.07873],[-117.75243,34.07851],[-117.75236,34.07789],[-117.75233,34.07767],[-117.7523,34.07742],[-117.7523,34.07735],[-117.7523,34.07728],[-117.75229,34.07717],[-117.75228,34.07658],[-117.75228,34.07636],[-117.75227,34.07582],[-117.75224,34.07424],[-117.75223,34.07404],[-117.75223,34.07396],[-117.75223,34.07394],[-117.75223,34.07379],[-117.7522,34.0738],[-117.75115,34.07423],[-117.75022,34.07462],[-117.74994,34.07473],[-117.7499,34.07475],[-117.74967,34.07485],[-117.74778,34.07561],[-117.74634,34.07619],[-117.74613,34.07627],[-117.74492,34.07677],[-117.74158,34.07815],[-117.7415,34.07833],[-117.74148,34.07837],[-117.74145,34.07844],[-117.74141,34.07852],[-117.74122,34.07892],[-117.7412,34.07895],[-117.74104,34.07931],[-117.74072,34.07997],[-117.74065,34.08015],[-117.74057,34.08031],[-117.73997,34.08166],[-117.73988,34.08186],[-117.73972,34.08215],[-117.73902,34.08332],[-117.73894,34.08347],[-117.73889,34.08359],[-117.73833,34.08478],[-117.73731,34.08694],[-117.73724,34.08711],[-117.73715,34.08733],[-117.737,34.0878],[-117.73693,34.08811],[-117.73688,34.08837],[-117.73682,34.08878],[-117.73679,34.08909],[-117.73679,34.08962],[-117.7368,34.09012],[-117.7368,34.09022],[-117.73679,34.0904],[-117.73679,34.09164],[-117.73679,34.09193],[-117.73679,34.09256],[-117.73679,34.09303],[-117.73678,34.09372],[-117.73678,34.09399],[-117.73943,34.094],[-117.74121,34.094],[-117.74227,34.09399],[-117.74291,34.09402],[-117.7435,34.09402],[-117.74457,34.09402],[-117.74545,34.09403],[-117.74777,34.09401],[-117.74857,34.09402],[-117.74857,34.09394],[-117.74858,34.09369],[-117.74858,34.09359],[-117.74858,34.09347],[-117.74858,34.09344],[-117.74857,34.09327],[-117.74858,34.09288],[-117.74858,34.09265],[-117.74858,34.09246],[-117.7486,34.0922],[-117.74863,34.09192],[-117.7487,34.09154],[-117.74886,34.09099],[-117.74894,34.09078],[-117.74902,34.09058],[-117.74931,34.08999],[-117.7496,34.08939],[-117.74968,34.08924],[-117.74986,34.08889],[-117.75031,34.08799],[-117.7504,34.0878],[-117.75073,34.08714],[-117.7513,34.08598],[-117.75133,34.08593],[-117.75149,34.08561],[-117.75182,34.085],[-117.75229,34.08419],[-117.7525,34.08384],[-117.75266,34.08356],[-117.75277,34.08328],[-117.75282,34.0831],[-117.7529,34.08265]]]}},{"type":"Feature","properties":{"geoid":"06037402200","tract":"4022","households":2149,"n":31,"no_internet":123,"no_internet_pct":5.7,"no_internet_rank":24,"no_internet_quartile":2,"no_internet_share":3.2,"no_computer":37,"no_computer_pct":1.7,"no_computer_rank":22,"no_computer_quartile":2,"no_computer_share":2.2},"geometry":{"type":"Polygon","coordinates":[[[-117.78749,34.07288],[-117.78758,34.07271],[-117.7865,34.07277],[-117.78534,34.07281],[-117.78378,34.07281],[-117.78361,34.07281],[-117.7835,34.07281],[-117.78267,34.07281],[-117.78256,34.07281],[-117.78248,34.07281],[-117.77989,34.07283],[-117.7795,34.07283],[-117.77837,34.07281],[-117.7776,34.07279],[-117.77686,34.07275],[-117.77598,34.07267],[-117.77506,34.07259],[-117.77463,34.07254],[-117.7737,34.07241],[-117.77322,34.07234],[-117.77262,34.07224],[-117.77236,34.07219],[-117.77188,34.0721],[-117.77028,34.07183],[-117.76926,34.07166],[-117.76802,34.07145],[-117.76654,34.07121],[-117.76533,34.07102],[-117.76436,34.07089],[-117.76351,34.07081],[-117.763,34.07079],[-117.76261,34.07078],[-117.76212,34.07077],[-117.76175,34.07078],[-117.76136,34.07081],[-117.76123,34.07082],[-117.76059,34.0709],[-117.76039,34.07094],[-117.7603,34.07095],[-117.75976,34.07106],[-117.75949,34.07112],[-117.75939,34.07115],[-117.75935,34.07116],[-117.7584,34.07141],[-117.75774,34.07162],[-117.75764,34.07165],[-117.7572,34.0718],[-117.75515,34.07259],[-117.75505,34.07263],[-117.75495,34.07267],[-117.75436,34.07291],[-117.75223,34.07379],[-117.75223,34.07394],[-117.75223,34.07396],[-117.75223,34.07404],[-117.75224,34.07424],[-117.75227,34.07582],[-117.75228,34.07636],[-117.75228,34.07658],[-117.75229,34.07717],[-117.7523,34.07728],[-117.7523,34.07735],[-117.7523,34.07742],[-117.75233,34.07767],[-117.75236,34.07789],[-117.75243,34.07851],[-117.75245,34.07873],[-117.75249,34.07905],[-117.75269,34.08073],[-117.75285,34.082],[-117.75288,34.08224],[-117.7529,34.08265],[-117.75282,34.0831],[-117.75277,34.08328],[-117.75266,34.08356],[-117.7525,34.08384],[-117.75229,34.08419],[-117.75182,34.085],[-117.75149,34.08561],[-117.75133,34.08593],[-117.7513,34.08598],[-117.75073,34.08714],[-117.7504,34.0878],[-117.75031,34.08799],[-117.74986,34.08889],[-117.74968,34.08924],[-117.7496,34.08939],[-117.74931,34.08999],[-117.74902,34.09058],[-117.74894,34.09078],[-117.74886,34.09099],[-117.7487,34.09154],[-117.74863,34.09192],[-117.7486,34.0922],[-117.74858,34.09246],[-117.74858,34.09265],[-117.74858,34.09288],[-117.74857,34.09327],[-117.74858,34.09344],[-117.74858,34.09347],[-117.74858,34.09359],[-117.74858,34.09369],[-117.74857,34.09394],[-117.74857,34.09402],[-117.749,34.09402],[-117.74914,34.09402],[-117.75194,34.09401],[-117.75346,34.09403],[-117.75397,34.09405],[-117.75407,34.09406],[-117.75485,34.09411],[-117.75522,34.09415],[-117.7556,34.0942],[-117.75595,34.09425],[-117.75599,34.09426],[-117.75613,34.09428],[-117.75613,34.09424],[-117.75613,34.09416],[-117.75613,34.09382],[-117.75612,34.0938],[-117.75612,34.09374],[-117.75612,34.09338],[-117.75612,34.09295],[-117.75612,34.0929],[-117.75612,34.09276],[-117.75613,34.09238],[-117.75613,34.09188],[-117.75613,34.09003],[-117.75613,34.08997],[-117.75648,34.08996],[-117.75694,34.08997],[-117.75701,34.08998],[-117.75733,34.09002],[-117.75748,34.09005],[-117.75768,34.09009],[-117.75806,34.0902],[-117.75816,34.09024],[-117.75822,34.09026],[-117.75853,34.09047],[-117.75862,34.09052],[-117.75876,34.09062],[-117.75901,34.09078],[-117.75935,34.091],[-117.75982,34.09131],[-117.76005,34.09146],[-117.76018,34.09155],[-117.76032,34.09164],[-117.76037,34.09168],[-117.7609,34.09202],[-117.76177,34.09259],[-117.76211,34.09281],[-117.76213,34.09278],[-117.76223,34.09266],[-117.76292,34.09173],[-117.76305,34.09155],[-117.76316,34.09139],[-117.7634,34.09106],[-117.7635,34.09092],[-117.76372,34.09065],[-117.7641,34.09013],[-117.76416,34.09003],[-117.76427,34.0899],[-117.76439,34.08972],[-117.76445,34.08964],[-117.76447,34.08969],[-117.76508,34.09122],[-117.76545,34.09214],[-117.76555,34.0924],[-117.76569,34.0927],[-117.7658,34.0929],[-117.76592,34.09309],[-117.76611,34.09336],[-117.76632,34.09363],[-117.76643,34.09376],[-117.76661,34.09395],[-117.76671,34.09404],[-117.76682,34.09415],[-117.76693,34.09425],[-117.76704,34.09434],[-117.7672,34.09446],[-117.76736,34.09458],[-117.76752,34.09469],[-117.76784,34.09492],[-117.76803,34.09499],[-117.76839,34.09517],[-117.76874,34.09532],[-117.76909,34.09544],[-117.76943,34.09554],[-117.76975,34.09564],[-117.76983,34.09566],[-117.76986,34.09567],[-117.76998,34.0957],[-117.77003,34.09555],[-117.77014,34.09532],[-117.77018,34.09526],[-117.77024,34.09513],[-117.77069,34.09449],[-117.77097,34.0941],[-117.77103,34.09401],[-117.77112,34.09389],[-117.77158,34.09327],[-117.7719,34.09285],[-117.77193,34.0928],[-117.77203,34.09268],[-117.77213,34.09254],[-117.77227,34.09234],[-117.77233,34.09224],[-117.77247,34.09205],[-117.77563,34.08779],[-117.7758,34.08755],[-117.77583,34.0875],[-117.77605,34.0872],[-117.77657,34.0865],[-117.77659,34.08647],[-117.77666,34.08638],[-117.77672,34.08629],[-117.77681,34.08617],[-117.77723,34.08638],[-117.77766,34.08664],[-117.77899,34.08734],[-117.77989,34.08786],[-117.78023,34.08805],[-117.78044,34.08813],[-117.78089,34.08826],[-117.78105,34.0883],[-117.78146,34.08841],[-117.7818,34.08849],[-117.78314,34.08883],[-117.78369,34.08898],[-117.78395,34.08905],[-117.78404,34.08907],[-117.78421,34.08859],[-117.78493,34.08852],[-117.78504,34.08833],[-117.78543,34.08847],[-117.78682,34.08835],[-117.78686,34.08806],[-117.78596,34.08623],[-117.78578,34.08586],[-117.7854,34.08509],[-117.78408,34.0849],[-117.78204,34.08539],[-117.7818,34.08501],[-117.78115,34.08401],[-117.78097,34.08373],[-117.78114,34.08358],[-117.78174,34.08302],[-117.78281,34.08202],[-117.78314,34.08171],[-117.78322,34.08163],[-117.78388,34.08103],[-117.7838,34.081],[-117.78365,34.08093],[-117.78348,34.08085],[-117.78291,34.0806],[-117.78089,34.0797],[-117.78052,34.07952],[-117.78033,34.07941],[-117.78019,34.07932],[-117.77974,34.0791],[-117.77964,34.07905],[-117.77967,34.079],[-117.77975,34.07889],[-117.78008,34.07833],[-117.78019,34.07814],[-117.78036,34.07785],[-117.7804,34.07778],[-117.78043,34.07775],[-117.78046,34.07769],[-117.78055,34.07758],[-117.78068,34.07744],[-117.7807,34.07742],[-117.78072,34.07741],[-117.78097,34.07718],[-117.78114,34.07707],[-117.7813,34.07696],[-117.78155,34.07684],[-117.78162,34.0768],[-117.78179,34.07675],[-117.78212,34.07665],[-117.78223,34.07662],[-117.78238,34.07659],[-117.78259,34.07654],[-117.78295,34.07645],[-117.78315,34.0764],[-117.78342,34.07634],[-117.7836,34.07629],[-117.78397,34.07616],[-117.78417,34.07608],[-117.78425,34.07604],[-117.78438,34.07599],[-117.78472,34.07582],[-117.78505,34.07564],[-117.78535,34.07545],[-117.78561,34.07526],[-117.786,34.07497],[-117.78628,34.07473],[-117.78648,34.07455],[-117.78655,34.07447],[-117.78677,34.0742],[-117.78686,34.07406],[-117.78694,34.07393],[-117.78717,34.07351],[-117.78719,34.07347],[-117.78723,34.07338],[-117.78745,34.07295],[-117.78749,34.07288]]]}},{"type":"Feature","properties":{"geoid":"06037402301","tract":"4023.01","households":1404,"n":31,"no_internet":140,"no_internet_pct":10.0,"no_internet_rank":13,"no_internet_quartile":3,"no_internet_share":3.7,"no_computer":87,"no_computer_pct":6.2,"no_computer_rank":8,"no_computer_quartile":4,"no_computer_share":5.2},"geometry":{"type":"Polygon","coordinates":[[[-117.77884,34.07145],[-117.77885,34.07116],[-117.77882,34.07103],[-117.77879,34.07091],[-117.77859,34.07017],[-117.7785,34.06984],[-117.77833,34.06926],[-117.7782,34.06884],[-117.77802,34.06823],[-117.77753,34.06666],[-117.777,34.06491],[-117.7768,34.06425],[-117.77677,34.06413],[-117.77676,34.06397],[-117.77676,34.06379],[-117.77541,34.06381],[-117.7729,34.06388],[-117.7727,34.06388],[-117.77176,34.06391],[-117.77083,34.06393],[-117.7696,34.06396],[-117.76838,34.06399],[-117.76792,34.064],[-117.76717,34.06402],[-117.76623,34.06404],[-117.76601,34.06405],[-117.76465,34.06408],[-117.76346,34.06411],[-117.76139,34.06416],[-117.76142,34.06505],[-117.76145,34.06598],[-117.76147,34.06632],[-117.76149,34.06694],[-117.7615,34.06724],[-117.76152,34.06795],[-117.76153,34.06797],[-117.76155,34.06871],[-117.76155,34.06914],[-117.76152,34.06939],[-117.76148,34.06959],[-117.76146,34.06967],[-117.76096,34.06983],[-117.75993,34.07031],[-117.75934,34.07059],[-117.75935,34.07113],[-117.75935,34.07116],[-117.75939,34.07115],[-117.75949,34.07112],[-117.75976,34.07106],[-117.7603,34.07095],[-117.76039,34.07094],[-117.76059,34.0709],[-117.76123,34.07082],[-117.76136,34.07081],[-117.76175,34.07078],[-117.76212,34.07077],[-117.76261,34.07078],[-117.763,34.07079],[-117.76351,34.07081],[-117.76436,34.07089],[-117.76533,34.07102],[-117.76654,34.07121],[-117.76802,34.07145],[-117.76926,34.07166],[-117.77028,34.07183],[-117.77188,34.0721],[-117.77236,34.07219],[-117.77262,34.07224],[-117.77322,34.07234],[-117.7737,34.07241],[-117.77463,34.07254],[-117.77506,34.07259],[-117.77598,34.07267],[-117.77686,34.07275],[-117.7776,34.07279],[-117.77837,34.07281],[-117.77842,34.0727],[-117.77847,34.0726],[-117.77862,34.07227],[-117.77869,34.07209],[-117.77875,34.0719],[-117.77877,34.07181],[-117.77879,34.07178],[-117.77879,34.07173],[-117.7788,34.0717],[-117.77881,34.07166],[-117.77884,34.07145]]]}},{"type":"Feature","properties":{"geoid":"06037402303","tract":"4023.03","households":1018,"n":31,"no_internet":115,"no_internet_pct":11.3,"no_internet_rank":10,"no_internet_quartile":3,"no_internet_share":3.0,"no_computer":28,"no_computer_pct":2.8,"no_computer_rank":17,"no_computer_quartile":2,"no_computer_share":1.7},"geometry":{"type":"Polygon","coordinates":[[[-117.76155,34.06914],[-117.76155,34.06871],[-117.76153,34.06797],[-117.76152,34.06795],[-117.7615,34.06724],[-117.76149,34.06694],[-117.76147,34.06632],[-117.76145,34.06598],[-117.76142,34.06505],[-117.76139,34.06416],[-117.75911,34.06422],[-117.75908,34.06334],[-117.75908,34.06321],[-117.75904,34.06216],[-117.75738,34.0622],[-117.75685,34.06221],[-117.7563,34.06223],[-117.75466,34.06227],[-117.75357,34.06229],[-117.75348,34.06229],[-117.75334,34.0623],[-117.75248,34.06233],[-117.75211,34.06233],[-117.75031,34.06238],[-117.75035,34.0635],[-117.75037,34.06416],[-117.75038,34.06455],[-117.75039,34.06461],[-117.75148,34.06664],[-117.7515,34.06668],[-117.75201,34.06763],[-117.75201,34.06772],[-117.75205,34.06872],[-117.75208,34.06959],[-117.75209,34.06973],[-117.75213,34.07076],[-117.75217,34.07177],[-117.75221,34.07267],[-117.75221,34.0729],[-117.75222,34.0734],[-117.75222,34.07359],[-117.75223,34.07373],[-117.75223,34.07379],[-117.75436,34.07291],[-117.75495,34.07267],[-117.75505,34.07263],[-117.75515,34.07259],[-117.7572,34.0718],[-117.75764,34.07165],[-117.75774,34.07162],[-117.7584,34.07141],[-117.75935,34.07116],[-117.75935,34.07113],[-117.75934,34.07059],[-117.75993,34.07031],[-117.76096,34.06983],[-117.76146,34.06967],[-117.76148,34.06959],[-117.76152,34.06939],[-117.76155,34.06914]]]}},{"type":"Feature","properties":{"geoid":"06037402304","tract":"4023.04","households":1043,"n":31,"no_internet":208,"no_internet_pct":19.9,"no_internet_rank":2,"no_internet_quartile":4,"no_internet_share":5.4,"no_computer":43,"no_computer_pct":4.1,"no_computer_rank":11,"no_computer_quartile":3,"no_computer_share":2.6},"geometry":{"type":"Polygon","coordinates":[[[-117.77676,34.06379],[-117.77668,34.06172],[-117.77263,34.06183],[-117.77075,34.06188],[-117.76953,34.06191],[-117.76831,34.06193],[-117.76822,34.06194],[-117.76781,34.06195],[-117.76781,34.06105],[-117.76783,34.06051],[-117.76785,34.06025],[-117.76788,34.06016],[-117.76794,34.06004],[-117.76798,34.05991],[-117.76795,34.05923],[-117.76794,34.0589],[-117.76794,34.05887],[-117.76796,34.05883],[-117.76797,34.05882],[-117.76768,34.05853],[-117.76765,34.05838],[-117.76687,34.05839],[-117.76605,34.05842],[-117.76378,34.05846],[-117.76328,34.05848],[-117.76158,34.05853],[-117.7592,34.05858],[-117.75891,34.05859],[-117.75891,34.05868],[-117.75897,34.06034],[-117.759,34.06123],[-117.75904,34.06216],[-117.75908,34.06321],[-117.75908,34.06334],[-117.75911,34.06422],[-117.76139,34.06416],[-117.76346,34.06411],[-117.76465,34.06408],[-117.76601,34.06405],[-117.76623,34.06404],[-117.76717,34.06402],[-117.76792,34.064],[-117.76838,34.06399],[-117.7696,34.06396],[-117.77083,34.06393],[-117.77176,34.06391],[-117.7727,34.06388],[-117.7729,34.06388],[-117.77541,34.06381],[-117.77676,34.06379]]]}},{"type":"Feature","properties":{"geoid":"06037402403","tract":"4024.03","households":1125,"n":31,"no_internet":75,"no_internet_pct":6.7,"no_internet_rank":21,"no_internet_quartile":2,"no_internet_share":2.0,"no_computer":13,"no_computer_pct":1.2,"no_computer_rank":26,"no_computer_quartile":1,"no_computer_share":0.8},"geometry":{"type":"Polygon","coordinates":[[[-117.82859,34.03786],[-117.82872,34.03763],[-117.82855,34.03763],[-117.82825,34.03763],[-117.82789,34.03762],[-117.82746,34.03762],[-117.82724,34.03762],[-117.82688,34.03762],[-117.82598,34.03762],[-117.8252,34.03762],[-117.82461,34.03762],[-117.8247,34.03746],[-117.82486,34.03718],[-117.82502,34.03681],[-117.8251,34.03663],[-117.82481,34.03662],[-117.82467,34.03661],[-117.8246,34.03688],[-117.82458,34.03694],[-117.82452,34.03713],[-117.82439,34.03746],[-117.82432,34.03757],[-117.82413,34.03789],[-117.82402,34.03802],[-117.82377,34.03833],[-117.82361,34.03845],[-117.82352,34.03851],[-117.82318,34.03877],[-117.82263,34.03909],[-117.82203,34.03944],[-117.82157,34.0397],[-117.82127,34.03988],[-117.82093,34.04012],[-117.82022,34.04064],[-117.81942,34.04122],[-117.81934,34.04127],[-117.81921,34.04137],[-117.81907,34.04147],[-117.8185,34.04186],[-117.81805,34.04218],[-117.81747,34.04258],[-117.81689,34.04298],[-117.81647,34.0433],[-117.81631,34.04345],[-117.81619,34.04355],[-117.81617,34.04358],[-117.81614,34.04361],[-117.81604,34.04371],[-117.81596,34.04381],[-117.81548,34.04445],[-117.81529,34.04465],[-117.81461,34.04552],[-117.81422,34.04602],[-117.81377,34.04663],[-117.81376,34.04664],[-117.81367,34.04676],[-117.81231,34.0485],[-117.81201,34.04839],[-117.812,34.04841],[-117.81141,34.04918],[-117.81091,34.04984],[-117.81045,34.05045],[-117.80982,34.05123],[-117.80923,34.05198],[-117.80877,34.05261],[-117.80821,34.0533],[-117.80784,34.05372],[-117.80733,34.05422],[-117.80695,34.0546],[-117.80656,34.0549],[-117.80619,34.05517],[-117.80569,34.05551],[-117.80472,34.05609],[-117.80435,34.05628],[-117.8042,34.05635],[-117.80391,34.05648],[-117.8037,34.05658],[-117.80333,34.05674],[-117.80255,34.05702],[-117.80208,34.05718],[-117.80202,34.0572],[-117.80157,34.05732],[-117.80144,34.05736],[-117.80086,34.05748],[-117.80077,34.05749],[-117.80018,34.05761],[-117.7996,34.05769],[-117.79827,34.05778],[-117.79694,34.05781],[-117.7937,34.05789],[-117.79372,34.05812],[-117.79527,34.06071],[-117.7956,34.06126],[-117.79655,34.06286],[-117.79696,34.06354],[-117.7972,34.06396],[-117.79727,34.06393],[-117.7979,34.0635],[-117.79952,34.06242],[-117.80091,34.06148],[-117.80201,34.06072],[-117.80269,34.06026],[-117.80291,34.06014],[-117.80323,34.06002],[-117.80407,34.05973],[-117.80442,34.05962],[-117.80465,34.05955],[-117.80485,34.0595],[-117.80506,34.05943],[-117.80525,34.05938],[-117.80536,34.05934],[-117.80547,34.05931],[-117.80559,34.05927],[-117.80622,34.05907],[-117.80691,34.05886],[-117.80741,34.0587],[-117.80758,34.05864],[-117.80796,34.05853],[-117.80798,34.05852],[-117.808,34.05851],[-117.8083,34.0584],[-117.80856,34.05829],[-117.8086,34.05826],[-117.8089,34.05809],[-117.80912,34.05791],[-117.80944,34.05763],[-117.80971,34.05734],[-117.80972,34.05733],[-117.81006,34.05699],[-117.81036,34.05668],[-117.81075,34.05629],[-117.81077,34.05627],[-117.81117,34.05599],[-117.81141,34.05581],[-117.81167,34.05559],[-117.8121,34.05515],[-117.81282,34.05437],[-117.81332,34.05382],[-117.81354,34.05359],[-117.81383,34.0533],[-117.81418,34.05292],[-117.81452,34.05244],[-117.81494,34.05179],[-117.81522,34.05133],[-117.81582,34.05049],[-117.81617,34.05004],[-117.81618,34.05004],[-117.81646,34.05014],[-117.81661,34.05019],[-117.81696,34.05028],[-117.81718,34.05033],[-117.81742,34.05037],[-117.81782,34.05043],[-117.81808,34.05045],[-117.81841,34.05047],[-117.82011,34.05048],[-117.82067,34.05049],[-117.82149,34.05049],[-117.82156,34.05049],[-117.82198,34.04972],[-117.82231,34.04913],[-117.8226,34.04861],[-117.82284,34.04817],[-117.82295,34.04799],[-117.82359,34.04683],[-117.82445,34.04529],[-117.82479,34.04468],[-117.8262,34.04215],[-117.82626,34.04204],[-117.82654,34.04153],[-117.82668,34.04129],[-117.82677,34.04111],[-117.82726,34.04024],[-117.82734,34.0401],[-117.82752,34.03977],[-117.82775,34.03937],[-117.82794,34.03904],[-117.82811,34.03873],[-117.82825,34.03848],[-117.82842,34.03816],[-117.82851,34.038],[-117.82859,34.03786]]]}},{"type":"Feature","properties":{"geoid":"06037402405","tract":"4024.05","households":576,"n":31,"no_internet":42,"no_internet_pct":7.3,"no_internet_rank":20,"no_internet_quartile":2,"no_internet_share":1.1,"no_computer":38,"no_computer_pct":6.6,"no_computer_rank":7,"no_computer_quartile":4,"no_computer_share":2.3},"geometry":{"type":"Polygon","coordinates":[[[-117.80528,34.06621],[-117.80529,34.06619],[-117.80525,34.06618],[-117.80496,34.0661],[-117.80493,34.0661],[-117.80489,34.06609],[-117.80453,34.06599],[-117.80308,34.06668],[-117.80288,34.06678],[-117.80284,34.0668],[-117.80269,34.06675],[-117.80228,34.06661],[-117.79946,34.06561],[-117.79837,34.06523],[-117.79784,34.06505],[-117.79607,34.06445],[-117.79396,34.06372],[-117.79327,34.06349],[-117.79191,34.06302],[-117.79163,34.06289],[-117.79029,34.0625],[-117.78827,34.0619],[-117.78754,34.06171],[-117.78755,34.06224],[-117.78755,34.06268],[-117.78755,34.06334],[-117.78757,34.06397],[-117.78758,34.06455],[-117.78758,34.06475],[-117.78767,34.06646],[-117.78768,34.06653],[-117.7877,34.06684],[-117.78771,34.06707],[-117.78773,34.0673],[-117.78775,34.06749],[-117.78781,34.06786],[-117.7879,34.06821],[-117.78794,34.06835],[-117.78804,34.06862],[-117.78814,34.06887],[-117.78839,34.06937],[-117.78855,34.06968],[-117.78859,34.06976],[-117.78865,34.06995],[-117.78868,34.07022],[-117.78868,34.07031],[-117.78867,34.07041],[-117.78867,34.07044],[-117.78865,34.07055],[-117.78861,34.07069],[-117.78853,34.07087],[-117.78822,34.07146],[-117.78812,34.07167],[-117.78808,34.07173],[-117.78785,34.07219],[-117.78789,34.0722],[-117.78783,34.07222],[-117.78758,34.07271],[-117.78749,34.07288],[-117.78745,34.07295],[-117.78723,34.07338],[-117.78719,34.07347],[-117.78717,34.07351],[-117.78694,34.07393],[-117.78686,34.07406],[-117.78677,34.0742],[-117.78655,34.07447],[-117.78648,34.07455],[-117.78628,34.07473],[-117.78659,34.07461],[-117.78679,34.07445],[-117.78719,34.07427],[-117.78762,34.07378],[-117.78764,34.07377],[-117.78822,34.0736],[-117.78942,34.07285],[-117.7904,34.07276],[-117.79079,34.07258],[-117.79119,34.07233],[-117.7917,34.0722],[-117.79222,34.07222],[-117.79264,34.07207],[-117.79328,34.0719],[-117.79389,34.07161],[-117.79416,34.07163],[-117.79487,34.0713],[-117.79501,34.07089],[-117.79505,34.07078],[-117.79557,34.07054],[-117.79562,34.07063],[-117.79583,34.07053],[-117.79577,34.07045],[-117.7967,34.07002],[-117.79703,34.06992],[-117.7972,34.0698],[-117.79788,34.06948],[-117.79818,34.06963],[-117.7983,34.06961],[-117.7983,34.06958],[-117.7983,34.06954],[-117.79818,34.06934],[-117.79905,34.06895],[-117.79944,34.06889],[-117.79949,34.06886],[-117.79987,34.06864],[-117.80015,34.06849],[-117.80058,34.06824],[-117.80066,34.0682],[-117.80136,34.06788],[-117.80187,34.06773],[-117.80262,34.06744],[-117.80285,34.06735],[-117.80335,34.0674],[-117.80339,34.06741],[-117.80351,34.06743],[-117.80431,34.06726],[-117.8045,34.06716],[-117.80459,34.06712],[-117.80483,34.06694],[-117.80485,34.06689],[-117.80513,34.06636],[-117.80528,34.06621]]]}},{"type":"Feature","properties":{"geoid":"06037402406","tract":"4024.06","households":1297,"n":31,"no_internet":61,"no_internet_pct":4.7,"no_internet_rank":27,"no_internet_quartile":1,"no_internet_share":1.6,"no_computer":16,"no_computer_pct":1.2,"no_computer_rank":25,"no_computer_quartile":1,"no_computer_share":1.0},"geometry":{"type":"Polygon","coordinates":[[[-117.78868,34.07031],[-117.78868,34.07022],[-117.78865,34.06995],[-117.78859,34.06976],[-117.78855,34.06968],[-117.78839,34.06937],[-117.78814,34.06887],[-117.78804,34.06862],[-117.78794,34.06835],[-117.7879,34.06821],[-117.78781,34.06786],[-117.78775,34.06749],[-117.78773,34.0673],[-117.78771,34.06707],[-117.7877,34.06684],[-117.78768,34.06653],[-117.78767,34.06646],[-117.78758,34.06475],[-117.78758,34.06455],[-117.78757,34.06397],[-117.78755,34.06334],[-117.78755,34.06268],[-117.78755,34.06224],[-117.78754,34.06171],[-117.78677,34.06146],[-117.78627,34.06148],[-117.78601,34.06149],[-117.78321,34.06156],[-117.78185,34.06159],[-117.77885,34.06167],[-117.77668,34.06172],[-117.77676,34.06379],[-117.77676,34.06397],[-117.77677,34.06413],[-117.7768,34.06425],[-117.777,34.06491],[-117.77753,34.06666],[-117.77802,34.06823],[-117.7782,34.06884],[-117.77833,34.06926],[-117.7785,34.06984],[-117.77859,34.07017],[-117.77879,34.07091],[-117.77882,34.07103],[-117.77885,34.07116],[-117.77884,34.07145],[-117.77881,34.07166],[-117.7788,34.0717],[-117.77879,34.07173],[-117.77879,34.07178],[-117.77877,34.07181],[-117.77875,34.0719],[-117.77869,34.07209],[-117.77862,34.07227],[-117.77847,34.0726],[-117.77842,34.0727],[-117.77837,34.07281],[-117.7795,34.07283],[-117.77989,34.07283],[-117.78248,34.07281],[-117.78256,34.07281],[-117.78267,34.07281],[-117.7835,34.07281],[-117.78361,34.07281],[-117.78378,34.07281],[-117.78534,34.07281],[-117.7865,34.07277],[-117.78758,34.07271],[-117.78783,34.07222],[-117.78789,34.0722],[-117.78785,34.07219],[-117.78808,34.07173],[-117.78812,34.07167],[-117.78822,34.07146],[-117.78853,34.07087],[-117.78861,34.07069],[-117.78865,34.07055],[-117.78867,34.07044],[-117.78867,34.07041],[-117.78868,34.07031]]]}},{"type":"Feature","properties":{"geoid":"06037402501","tract":"4025.01","households":1348,"n":31,"no_internet":310,"no_internet_pct":23.0,"no_internet_rank":1,"no_internet_quartile":4,"no_internet_share":8.1,"no_computer":121,"no_computer_pct":9.0,"no_computer_rank":3,"no_computer_quartile":4,"no_computer_share":7.2},"geometry":{"type":"Polygon","coordinates":[[[-117.77354,34.05444],[-117.77347,34.05419],[-117.77336,34.0538],[-117.7729,34.05243],[-117.77288,34.0522],[-117.77281,34.05199],[-117.77272,34.05168],[-117.77249,34.05091],[-117.7717,34.05093],[-117.77065,34.05096],[-117.76891,34.051],[-117.76738,34.05104],[-117.76522,34.05109],[-117.76301,34.05115],[-117.76156,34.05119],[-117.75864,34.05126],[-117.75827,34.05128],[-117.75645,34.05132],[-117.75537,34.05133],[-117.75539,34.05225],[-117.75543,34.05315],[-117.75546,34.05406],[-117.75656,34.05404],[-117.75763,34.05402],[-117.75763,34.05401],[-117.75874,34.05399],[-117.75877,34.05489],[-117.75881,34.05579],[-117.75884,34.05671],[-117.75887,34.05762],[-117.7589,34.0585],[-117.75891,34.05859],[-117.7592,34.05858],[-117.76158,34.05853],[-117.76328,34.05848],[-117.76378,34.05846],[-117.76605,34.05842],[-117.76687,34.05839],[-117.76765,34.05838],[-117.76764,34.05829],[-117.76761,34.05739],[-117.76978,34.05734],[-117.76975,34.05644],[-117.76969,34.05462],[-117.77157,34.05457],[-117.7723,34.05455],[-117.7727,34.05452],[-117.77332,34.05447],[-117.77338,34.05446],[-117.77354,34.05444]]]}},{"type":"Feature","properties":{"geoid":"06037402503","tract":"4025.03","households":1118,"n":31,"no_internet":39,"no_internet_pct":3.5,"no_internet_rank":29,"no_internet_quartile":1,"no_internet_share":1.0,"no_computer":16,"no_computer_pct":1.4,"no_computer_rank":24,"no_computer_quartile":2,"no_computer_share":1.0},"geometry":{"type":"Polygon","coordinates":[[[-117.77249,34.05091],[-117.77227,34.05015],[-117.77204,34.04939],[-117.77193,34.04905],[-117.77191,34.04889],[-117.7719,34.04861],[-117.77187,34.04784],[-117.77186,34.04722],[-117.77185,34.04708],[-117.77182,34.04626],[-117.77167,34.04626],[-117.77153,34.04625],[-117.77142,34.04624],[-117.77135,34.04623],[-117.76717,34.04522],[-117.76595,34.04494],[-117.76547,34.04478],[-117.76517,34.04463],[-117.76509,34.04458],[-117.76472,34.04431],[-117.76461,34.04423],[-117.76446,34.04407],[-117.76434,34.04398],[-117.76424,34.04394],[-117.76414,34.0439],[-117.76411,34.04389],[-117.76398,34.04386],[-117.76384,34.04386],[-117.76372,34.04386],[-117.76275,34.04388],[-117.76158,34.04391],[-117.76057,34.04393],[-117.75838,34.04398],[-117.75846,34.04631],[-117.75851,34.04763],[-117.75854,34.04853],[-117.75855,34.04855],[-117.75857,34.04944],[-117.75861,34.05035],[-117.75864,34.05126],[-117.76156,34.05119],[-117.76301,34.05115],[-117.76522,34.05109],[-117.76738,34.05104],[-117.76891,34.051],[-117.77065,34.05096],[-117.7717,34.05093],[-117.77249,34.05091]]]}},{"type":"Feature","properties":{"geoid":"06037402504","tract":"4025.04","households":803,"n":31,"no_internet":114,"no_internet_pct":14.2,"no_internet_rank":5,"no_internet_quartile":4,"no_internet_share":3.0,"no_computer":19,"no_computer_pct":2.4,"no_computer_rank":18,"no_computer_quartile":2,"no_computer_share":1.1},"geometry":{"type":"Polygon","coordinates":[[[-117.75864,34.05126],[-117.75861,34.05035],[-117.75857,34.04944],[-117.75855,34.04855],[-117.75854,34.04853],[-117.75851,34.04763],[-117.75846,34.04631],[-117.75838,34.04398],[-117.75619,34.04404],[-117.75401,34.04409],[-117.75293,34.04412],[-117.75278,34.04413],[-117.75183,34.04415],[-117.74965,34.04421],[-117.74968,34.0449],[-117.74972,34.04596],[-117.74972,34.04602],[-117.74978,34.04784],[-117.74981,34.04878],[-117.74984,34.04966],[-117.74987,34.05057],[-117.75097,34.05054],[-117.75205,34.05052],[-117.75316,34.05049],[-117.75424,34.05046],[-117.75533,34.05043],[-117.75537,34.05133],[-117.75645,34.05132],[-117.75827,34.05128],[-117.75864,34.05126]]]}},{"type":"Feature","properties":{"geoid":"06037402601","tract":"4026.01","households":726,"n":31,"no_internet":61,"no_internet_pct":8.4,"no_internet_rank":17,"no_internet_quartile":2,"no_internet_share":1.6,"no_computer":12,"no_computer_pct":1.7,"no_computer_rank":23,"no_computer_quartile":2,"no_computer_share":0.7},"geometry":{"type":"Polygon","coordinates":[[[-117.74208,34.07664],[-117.74208,34.07654],[-117.74205,34.07581],[-117.74203,34.07528],[-117.74197,34.07359],[-117.74195,34.07328],[-117.74194,34.07285],[-117.74193,34.07272],[-117.74192,34.07234],[-117.7419,34.07174],[-117.74186,34.07071],[-117.74184,34.07038],[-117.74182,34.06968],[-117.74181,34.06947],[-117.74178,34.06867],[-117.74178,34.06855],[-117.74178,34.06848],[-117.74175,34.06767],[-117.74171,34.06651],[-117.7417,34.06638],[-117.74166,34.06527],[-117.74165,34.06513],[-117.74161,34.06388],[-117.74161,34.0637],[-117.74159,34.06325],[-117.74157,34.06259],[-117.74153,34.06166],[-117.74149,34.06078],[-117.74146,34.05987],[-117.74143,34.05924],[-117.74143,34.05917],[-117.74143,34.05901],[-117.74143,34.05893],[-117.73706,34.05904],[-117.73707,34.05913],[-117.73707,34.05927],[-117.73713,34.06073],[-117.73713,34.06085],[-117.73713,34.06123],[-117.73714,34.06168],[-117.73711,34.06176],[-117.73709,34.06184],[-117.73708,34.06187],[-117.73697,34.06203],[-117.73686,34.06216],[-117.7368,34.06225],[-117.7367,34.0624],[-117.73666,34.06249],[-117.73666,34.06252],[-117.73663,34.06271],[-117.73663,34.06401],[-117.73663,34.0648],[-117.73663,34.06509],[-117.73664,34.06525],[-117.73664,34.06593],[-117.73665,34.06643],[-117.73665,34.06649],[-117.73666,34.06759],[-117.73665,34.06778],[-117.73665,34.06783],[-117.73665,34.06846],[-117.73666,34.06867],[-117.73666,34.06872],[-117.73666,34.06885],[-117.73666,34.06943],[-117.73667,34.06958],[-117.73667,34.06963],[-117.73668,34.07005],[-117.73668,34.07039],[-117.73668,34.07059],[-117.73669,34.07098],[-117.73669,34.07235],[-117.73669,34.07299],[-117.7367,34.07386],[-117.73669,34.07452],[-117.7367,34.07582],[-117.73671,34.07662],[-117.73672,34.07829],[-117.73673,34.07869],[-117.73673,34.07946],[-117.73673,34.07952],[-117.73673,34.07981],[-117.73673,34.08005],[-117.73673,34.0801],[-117.73673,34.08014],[-117.73696,34.08005],[-117.73817,34.07955],[-117.74152,34.07818],[-117.74158,34.07815],[-117.74161,34.0781],[-117.74179,34.07771],[-117.74181,34.07766],[-117.74192,34.07743],[-117.742,34.07715],[-117.742,34.07713],[-117.74204,34.07702],[-117.74207,34.07675],[-117.74207,34.0767],[-117.74208,34.07664]]]}},{"type":"Feature","properties":{"geoid":"06037402602","tract":"4026.02","households":1910,"n":31,"no_internet":176,"no_internet_pct":9.2,"no_internet_rank":14,"no_internet_quartile":3,"no_internet_share":4.6,"no_computer":172,"no_computer_pct":9.0,"no_computer_rank":2,"no_computer_quartile":4,"no_computer_share":10.3},"geometry":{"type":"Polygon","coordinates":[[[-117.75223,34.07379],[-117.75223,34.07373],[-117.75222,34.07359],[-117.75222,34.0734],[-117.75221,34.0729],[-117.75221,34.07267],[-117.75217,34.07177],[-117.75213,34.07076],[-117.75209,34.06973],[-117.75208,34.06959],[-117.75205,34.06872],[-117.75201,34.06772],[-117.75201,34.06763],[-117.7515,34.06668],[-117.75148,34.06664],[-117.75039,34.06461],[-117.75038,34.06455],[-117.75037,34.06416],[-117.75035,34.0635],[-117.74816,34.06355],[-117.74597,34.06361],[-117.74569,34.06361],[-117.74485,34.06363],[-117.74431,34.06364],[-117.74387,34.06366],[-117.7438,34.06366],[-117.7438,34.06384],[-117.74161,34.06388],[-117.74165,34.06513],[-117.74166,34.06527],[-117.7417,34.06638],[-117.74171,34.06651],[-117.74175,34.06767],[-117.74178,34.06848],[-117.74178,34.06855],[-117.74178,34.06867],[-117.74181,34.06947],[-117.74182,34.06968],[-117.74184,34.07038],[-117.74186,34.07071],[-117.7419,34.07174],[-117.74192,34.07234],[-117.74193,34.07272],[-117.74194,34.07285],[-117.74195,34.07328],[-117.74197,34.07359],[-117.74203,34.07528],[-117.74205,34.07581],[-117.74208,34.07654],[-117.74208,34.07664],[-117.74207,34.0767],[-117.74207,34.07675],[-117.74204,34.07702],[-117.742,34.07713],[-117.742,34.07715],[-117.74192,34.07743],[-117.74181,34.07766],[-117.74179,34.07771],[-117.74161,34.0781],[-117.74158,34.07815],[-117.74492,34.07677],[-117.74613,34.07627],[-117.74634,34.07619],[-117.74778,34.07561],[-117.74967,34.07485],[-117.7499,34.07475],[-117.74994,34.07473],[-117.75022,34.07462],[-117.75115,34.07423],[-117.7522,34.0738],[-117.75223,34.07379]]]}},{"type":"Feature","properties":{"geoid":"06037402702","tract":"4027.02","households":1429,"n":31,"no_internet":153,"no_internet_pct":10.7,"no_internet_rank":11,"no_internet_quartile":3,"no_internet_share":4.0,"no_computer":51,"no_computer_pct":3.6,"no_computer_rank":14,"no_computer_quartile":3,"no_computer_share":3.1},"geometry":{"type":"Polygon","coordinates":[[[-117.73714,34.06168],[-117.73713,34.06123],[-117.73713,34.06085],[-117.73713,34.06073],[-117.73707,34.05927],[-117.73593,34.05928],[-117.73464,34.05931],[-117.7346,34.05931],[-117.73375,34.05939],[-117.73309,34.05942],[-117.7327,34.05942],[-117.73116,34.05944],[-117.73052,34.05947],[-117.72974,34.0595],[-117.72862,34.05951],[-117.72757,34.05954],[-117.72644,34.05956],[-117.72551,34.05959],[-117.72454,34.05961],[-117.72398,34.05964],[-117.72323,34.05966],[-117.71948,34.05973],[-117.7193,34.05974],[-117.71807,34.06317],[-117.71776,34.064],[-117.71773,34.06408],[-117.71713,34.06575],[-117.71672,34.06689],[-117.717,34.06693],[-117.71709,34.06693],[-117.71753,34.06694],[-117.71922,34.06693],[-117.71944,34.06693],[-117.72079,34.06689],[-117.72253,34.06684],[-117.72288,34.06683],[-117.72628,34.06673],[-117.7271,34.06671],[-117.7281,34.06668],[-117.72915,34.06665],[-117.72952,34.06664],[-117.73021,34.06662],[-117.73042,34.06661],[-117.73141,34.06658],[-117.73145,34.06658],[-117.73145,34.06833],[-117.73146,34.0686],[-117.73146,34.06874],[-117.73402,34.06873],[-117.73666,34.06872],[-117.73666,34.06867],[-117.73665,34.06846],[-117.73665,34.06783],[-117.73665,34.06778],[-117.73666,34.06759],[-117.73665,34.06649],[-117.73665,34.06643],[-117.73664,34.06593],[-117.73664,34.06525],[-117.73663,34.06509],[-117.73663,34.0648],[-117.73663,34.06401],[-117.73663,34.06271],[-117.73666,34.06252],[-117.73666,34.06249],[-117.7367,34.0624],[-117.7368,34.06225],[-117.73686,34.06216],[-117.73697,34.06203],[-117.73708,34.06187],[-117.73709,34.06184],[-117.73711,34.06176],[-117.73714,34.06168]]]}},{"type":"Feature","properties":{"geoid":"06037402703","tract":"4027.03","households":1257,"n":31,"no_internet":79,"no_internet_pct":6.3,"no_internet_rank":22,"no_internet_quartile":2,"no_internet_share":2.1,"no_computer":26,"no_computer_pct":2.1,"no_computer_rank":20,"no_computer_quartile":2,"no_computer_share":1.6},"geometry":{"type":"Polygon","coordinates":[[[-117.73673,34.08014],[-117.73673,34.0801],[-117.73673,34.08005],[-117.73673,34.07981],[-117.73673,34.07952],[-117.73673,34.07946],[-117.73673,34.07869],[-117.73672,34.07829],[-117.73671,34.07662],[-117.7367,34.07582],[-117.73662,34.07583],[-117.73453,34.07584],[-117.73311,34.07584],[-117.73177,34.07584],[-117.7315,34.07584],[-117.72891,34.07585],[-117.72799,34.07585],[-117.72633,34.07586],[-117.72584,34.07586],[-117.72543,34.07586],[-117.72472,34.07586],[-117.72468,34.07587],[-117.72377,34.07587],[-117.72339,34.07587],[-117.72272,34.07587],[-117.72155,34.07587],[-117.7205,34.07587],[-117.72042,34.07587],[-117.71925,34.07588],[-117.71841,34.07588],[-117.71823,34.07588],[-117.71787,34.07588],[-117.71571,34.07589],[-117.71486,34.07589],[-117.71347,34.07589],[-117.71282,34.07589],[-117.7125,34.07662],[-117.71242,34.07682],[-117.71228,34.07713],[-117.71201,34.07775],[-117.71196,34.07785],[-117.71183,34.07815],[-117.7118,34.07822],[-117.71156,34.07871],[-117.71123,34.0794],[-117.7112,34.07948],[-117.71117,34.07954],[-117.71398,34.07953],[-117.71412,34.07953],[-117.71487,34.07953],[-117.71522,34.07953],[-117.71574,34.07953],[-117.71576,34.07953],[-117.71656,34.07953],[-117.71658,34.07953],[-117.71822,34.07952],[-117.71925,34.07952],[-117.71936,34.07952],[-117.7219,34.07951],[-117.72211,34.07951],[-117.72217,34.07951],[-117.72241,34.07951],[-117.72273,34.0795],[-117.728,34.07948],[-117.728,34.07953],[-117.728,34.07967],[-117.728,34.08051],[-117.728,34.08089],[-117.728,34.08121],[-117.728,34.08124],[-117.728,34.08139],[-117.728,34.08145],[-117.72843,34.08145],[-117.73129,34.08144],[-117.73166,34.08144],[-117.73205,34.08142],[-117.73223,34.08141],[-117.73246,34.08139],[-117.73279,34.08135],[-117.73317,34.0813],[-117.73349,34.08124],[-117.73379,34.08118],[-117.7342,34.08108],[-117.7343,34.08105],[-117.73462,34.08096],[-117.73512,34.08079],[-117.73566,34.08058],[-117.73672,34.08015],[-117.73673,34.08014]]]}},{"type":"Feature","properties":{"geoid":"06037402705","tract":"4027.05","households":883,"n":31,"no_internet":71,"no_internet_pct":8.0,"no_internet_rank":18,"no_internet_quartile":2,"no_internet_share":1.9,"no_computer":28,"no_computer_pct":3.2,"no_computer_rank":16,"no_computer_quartile":3,"no_computer_share":1.7},"geometry":{"type":"Polygon","coordinates":[[[-117.73669,34.07452],[-117.7367,34.07386],[-117.73669,34.07299],[-117.73669,34.07235],[-117.73669,34.07098],[-117.73668,34.07059],[-117.73668,34.07039],[-117.73668,34.07005],[-117.73667,34.06963],[-117.73667,34.06958],[-117.73666,34.06943],[-117.73666,34.06885],[-117.73666,34.06872],[-117.73402,34.06873],[-117.73146,34.06874],[-117.73146,34.0686],[-117.73145,34.06833],[-117.73145,34.06658],[-117.73141,34.06658],[-117.73042,34.06661],[-117.73021,34.06662],[-117.72952,34.06664],[-117.72915,34.06665],[-117.7281,34.06668],[-117.7271,34.06671],[-117.72628,34.06673],[-117.72629,34.06744],[-117.72629,34.06841],[-117.7263,34.06913],[-117.7263,34.06986],[-117.7263,34.07101],[-117.72631,34.07176],[-117.72632,34.07251],[-117.72632,34.07348],[-117.72633,34.07586],[-117.72799,34.07585],[-117.72891,34.07585],[-117.7315,34.07584],[-117.73177,34.07584],[-117.73311,34.07584],[-117.73453,34.07584],[-117.73662,34.07583],[-117.7367,34.07582],[-117.73669,34.07452]]]}},{"type":"Feature","properties":{"geoid":"06037402706","tract":"4027.06","households":974,"n":31,"no_internet":75,"no_internet_pct":7.7,"no_internet_rank":19,"no_internet_quartile":2,"no_internet_share":2.0,"no_computer":34,"no_computer_pct":3.5,"no_computer_rank":15,"no_computer_quartile":3,"no_computer_share":2.0},"geometry":{"type":"Polygon","coordinates":[[[-117.72633,34.07586],[-117.72632,34.07348],[-117.72632,34.07251],[-117.72631,34.07176],[-117.7263,34.07101],[-117.7263,34.06986],[-117.7263,34.06913],[-117.72629,34.06841],[-117.72629,34.06744],[-117.72628,34.06673],[-117.72288,34.06683],[-117.72253,34.06684],[-117.72079,34.06689],[-117.71944,34.06693],[-117.71922,34.06693],[-117.71753,34.06694],[-117.71709,34.06693],[-117.717,34.06693],[-117.71672,34.06689],[-117.71648,34.06758],[-117.71633,34.06792],[-117.71613,34.06836],[-117.71526,34.07034],[-117.71514,34.07062],[-117.7147,34.07163],[-117.71354,34.07426],[-117.7133,34.0748],[-117.71282,34.07589],[-117.71347,34.07589],[-117.71486,34.07589],[-117.71571,34.07589],[-117.71787,34.07588],[-117.71823,34.07588],[-117.71841,34.07588],[-117.71925,34.07588],[-117.72042,34.07587],[-117.7205,34.07587],[-117.72155,34.07587],[-117.72272,34.07587],[-117.72339,34.07587],[-117.72377,34.07587],[-117.72468,34.07587],[-117.72472,34.07586],[-117.72543,34.07586],[-117.72584,34.07586],[-117.72633,34.07586]]]}},{"type":"Feature","properties":{"geoid":"06037402801","tract":"4028.01","households":1076,"n":31,"no_internet":49,"no_internet_pct":4.6,"no_internet_rank":28,"no_internet_quartile":1,"no_internet_share":1.3,"no_computer":49,"no_computer_pct":4.6,"no_computer_rank":10,"no_computer_quartile":3,"no_computer_share":2.9},"geometry":{"type":"Polygon","coordinates":[[[-117.74786,34.05516],[-117.74783,34.05426],[-117.74779,34.05335],[-117.74776,34.05253],[-117.74776,34.05245],[-117.74773,34.05153],[-117.74663,34.05156],[-117.74554,34.05159],[-117.74445,34.05161],[-117.74336,34.05164],[-117.7423,34.05167],[-117.74118,34.05169],[-117.74098,34.0517],[-117.73899,34.05174],[-117.73897,34.05175],[-117.73882,34.05175],[-117.73715,34.05179],[-117.73681,34.0518],[-117.7366,34.0518],[-117.73537,34.05183],[-117.73467,34.05185],[-117.73245,34.05191],[-117.73236,34.05191],[-117.73228,34.05191],[-117.73127,34.05194],[-117.73034,34.05196],[-117.72821,34.05201],[-117.72799,34.05202],[-117.72719,34.05203],[-117.72672,34.05205],[-117.72588,34.05206],[-117.72497,34.05209],[-117.7237,34.0521],[-117.72279,34.05216],[-117.72222,34.05218],[-117.7221,34.05218],[-117.72203,34.05218],[-117.72143,34.05383],[-117.7207,34.05586],[-117.71939,34.05948],[-117.71935,34.05958],[-117.7193,34.05974],[-117.71948,34.05973],[-117.72323,34.05966],[-117.72398,34.05964],[-117.72454,34.05961],[-117.72551,34.05959],[-117.72644,34.05956],[-117.72757,34.05954],[-117.72862,34.05951],[-117.72974,34.0595],[-117.73052,34.05947],[-117.73116,34.05944],[-117.7327,34.05942],[-117.73309,34.05942],[-117.73375,34.05939],[-117.7346,34.05931],[-117.73464,34.05931],[-117.73593,34.05928],[-117.73707,34.05927],[-117.73707,34.05913],[-117.73706,34.05904],[-117.74143,34.05893],[-117.74142,34.05846],[-117.74141,34.05824],[-117.74141,34.05805],[-117.74137,34.05714],[-117.74137,34.05703],[-117.74135,34.05632],[-117.74134,34.05626],[-117.74134,34.05617],[-117.7413,34.05532],[-117.74155,34.05532],[-117.74242,34.0553],[-117.74349,34.05527],[-117.74435,34.05525],[-117.74458,34.05524],[-117.74568,34.05522],[-117.74677,34.05519],[-117.74732,34.05518],[-117.74786,34.05516]]]}},{"type":"Feature","properties":{"geoid":"06037402803","tract":"4028.03","households":757,"n":31,"no_internet":38,"no_internet_pct":5.0,"no_internet_rank":26,"no_internet_quartile":1,"no_internet_share":1.0,"no_computer":15,"no_computer_pct":2.0,"no_computer_rank":21,"no_computer_quartile":2,"no_computer_share":0.9},"geometry":{"type":"Polygon","coordinates":[[[-117.74987,34.05057],[-117.74984,34.04966],[-117.74981,34.04878],[-117.74978,34.04784],[-117.74972,34.04602],[-117.74972,34.04596],[-117.74968,34.0449],[-117.74965,34.04421],[-117.74746,34.04426],[-117.74528,34.04431],[-117.74503,34.04432],[-117.74412,34.04434],[-117.7434,34.04436],[-117.74193,34.0444],[-117.74092,34.04442],[-117.74095,34.04537],[-117.74097,34.0458],[-117.741,34.04661],[-117.74105,34.04805],[-117.74105,34.04809],[-117.74106,34.04813],[-117.74106,34.04824],[-117.74108,34.04896],[-117.74111,34.04987],[-117.74118,34.05169],[-117.7423,34.05167],[-117.74336,34.05164],[-117.74445,34.05161],[-117.74554,34.05159],[-117.74663,34.05156],[-117.74773,34.05153],[-117.7477,34.05062],[-117.74878,34.05059],[-117.74898,34.05059],[-117.74965,34.05057],[-117.74987,34.05057]]]}},{"type":"Feature","properties":{"geoid":"06037402804","tract":"4028.04","households":983,"n":31,"no_internet":139,"no_internet_pct":14.1,"no_internet_rank":6,"no_internet_quartile":4,"no_internet_share":3.6,"no_computer":6,"no_computer_pct":0.6,"no_computer_rank":30,"no_computer_quartile":1,"no_computer_share":0.4},"geometry":{"type":"Polygon","coordinates":[[[-117.74118,34.05169],[-117.74111,34.04987],[-117.74108,34.04896],[-117.74106,34.04824],[-117.74106,34.04813],[-117.74105,34.04809],[-117.74105,34.04805],[-117.741,34.04661],[-117.74097,34.0458],[-117.74095,34.04537],[-117.74092,34.04442],[-117.73962,34.04445],[-117.73853,34.04448],[-117.73842,34.04448],[-117.73749,34.0445],[-117.73655,34.04453],[-117.73492,34.04457],[-117.73471,34.04457],[-117.73402,34.04459],[-117.73385,34.04459],[-117.73219,34.04463],[-117.73136,34.04465],[-117.73113,34.04467],[-117.73066,34.04469],[-117.73008,34.0447],[-117.72823,34.04474],[-117.72799,34.04473],[-117.72797,34.04473],[-117.72689,34.04475],[-117.72585,34.0448],[-117.72481,34.04487],[-117.72466,34.04487],[-117.72443,34.04552],[-117.7244,34.0456],[-117.72401,34.04667],[-117.72359,34.04786],[-117.72336,34.0485],[-117.72325,34.0488],[-117.72242,34.05109],[-117.72203,34.05218],[-117.7221,34.05218],[-117.72222,34.05218],[-117.72279,34.05216],[-117.7237,34.0521],[-117.72497,34.05209],[-117.72588,34.05206],[-117.72672,34.05205],[-117.72719,34.05203],[-117.72799,34.05202],[-117.72821,34.05201],[-117.73034,34.05196],[-117.73127,34.05194],[-117.73228,34.05191],[-117.73236,34.05191],[-117.73245,34.05191],[-117.73467,34.05185],[-117.73537,34.05183],[-117.7366,34.0518],[-117.73681,34.0518],[-117.73715,34.05179],[-117.73882,34.05175],[-117.73897,34.05175],[-117.73899,34.05174],[-117.74098,34.0517],[-117.74118,34.05169]]]}},{"type":"Feature","properties":{"geoid":"06037402902","tract":"4029.02","households":1780,"n":31,"no_internet":161,"no_internet_pct":9.0,"no_internet_rank":15,"no_internet_quartile":3,"no_internet_share":4.2,"no_computer":127,"no_computer_pct":7.1,"no_computer_rank":5,"no_computer_quartile":4,"no_computer_share":7.6},"geometry":{"type":"Polygon","coordinates":[[[-117.74985,34.02412],[-117.74991,34.02412],[-117.74976,34.02399],[-117.74958,34.02382],[-117.74951,34.02376],[-117.74905,34.02332],[-117.74887,34.02314],[-117.74852,34.02316],[-117.74799,34.02321],[-117.74776,34.02324],[-117.74762,34.02326],[-117.74737,34.02331],[-117.74721,34.02334],[-117.74682,34.0234],[-117.74656,34.02344],[-117.74525,34.02364],[-117.74458,34.02374],[-117.74425,34.02378],[-117.74373,34.02386],[-117.74288,34.024],[-117.7403,34.02437],[-117.74026,34.02438],[-117.7402,34.02439],[-117.7402,34.02446],[-117.74021,34.02471],[-117.74027,34.02627],[-117.74028,34.02684],[-117.74028,34.02691],[-117.74029,34.02699],[-117.74032,34.02772],[-117.74034,34.02843],[-117.74034,34.02847],[-117.74036,34.029],[-117.74037,34.02913],[-117.7404,34.02989],[-117.74041,34.03027],[-117.74051,34.03299],[-117.74052,34.03353],[-117.74053,34.03379],[-117.74055,34.03405],[-117.74059,34.0353],[-117.7406,34.03555],[-117.74065,34.03683],[-117.74065,34.03715],[-117.74062,34.03715],[-117.74072,34.03971],[-117.74073,34.04013],[-117.74075,34.04049],[-117.74078,34.04078],[-117.74086,34.04266],[-117.74087,34.043],[-117.74092,34.04442],[-117.74193,34.0444],[-117.7434,34.04436],[-117.74412,34.04434],[-117.74503,34.04432],[-117.74528,34.04431],[-117.74746,34.04426],[-117.74965,34.04421],[-117.74959,34.04267],[-117.74959,34.04242],[-117.74957,34.04217],[-117.74952,34.04057],[-117.74945,34.03884],[-117.7494,34.03749],[-117.74938,34.03693],[-117.74925,34.03336],[-117.74925,34.03331],[-117.74924,34.03301],[-117.7492,34.03211],[-117.74912,34.02968],[-117.74899,34.02605],[-117.74895,34.0251],[-117.74895,34.02493],[-117.7489,34.02471],[-117.74889,34.02466],[-117.74887,34.02457],[-117.74875,34.02428],[-117.74868,34.02417],[-117.74985,34.02412]]]}},{"type":"Feature","properties":{"geoid":"06037402903","tract":"4029.03","households":999,"n":31,"no_internet":163,"no_internet_pct":16.3,"no_internet_rank":3,"no_internet_quartile":4,"no_internet_share":4.3,"no_computer":146,"no_computer_pct":14.6,"no_computer_rank":1,"no_computer_quartile":4,"no_computer_share":8.7},"geometry":{"type":"Polygon","coordinates":[[[-117.74092,34.04442],[-117.74087,34.043],[-117.74086,34.04266],[-117.74078,34.04078],[-117.74075,34.04049],[-117.74073,34.04013],[-117.74072,34.03971],[-117.74062,34.03715],[-117.74065,34.03715],[-117.74065,34.03683],[-117.7406,34.03555],[-117.74059,34.0353],[-117.74055,34.03405],[-117.74053,34.03379],[-117.74052,34.03353],[-117.73933,34.03355],[-117.73833,34.03357],[-117.73816,34.03358],[-117.73734,34.0336],[-117.73617,34.03363],[-117.7352,34.03366],[-117.73516,34.03366],[-117.73439,34.03368],[-117.73434,34.03368],[-117.73351,34.0337],[-117.73281,34.03371],[-117.73202,34.03373],[-117.73175,34.03374],[-117.72969,34.03378],[-117.72961,34.03379],[-117.72935,34.03378],[-117.72911,34.03376],[-117.72879,34.03371],[-117.72841,34.03361],[-117.72817,34.03357],[-117.72806,34.03354],[-117.72803,34.03353],[-117.72801,34.03363],[-117.72799,34.03372],[-117.72792,34.03417],[-117.72787,34.03436],[-117.72775,34.03515],[-117.72774,34.03519],[-117.72762,34.03587],[-117.72751,34.03653],[-117.72737,34.03733],[-117.72736,34.03739],[-117.72731,34.03753],[-117.72662,34.03945],[-117.7266,34.03951],[-117.72652,34.03973],[-117.7264,34.04004],[-117.7264,34.04006],[-117.72619,34.04063],[-117.72601,34.04113],[-117.72558,34.04232],[-117.72524,34.04326],[-117.72505,34.0438],[-117.72476,34.04461],[-117.72466,34.04487],[-117.72481,34.04487],[-117.72585,34.0448],[-117.72689,34.04475],[-117.72797,34.04473],[-117.72799,34.04473],[-117.72823,34.04474],[-117.73008,34.0447],[-117.73066,34.04469],[-117.73113,34.04467],[-117.73136,34.04465],[-117.73219,34.04463],[-117.73385,34.04459],[-117.73402,34.04459],[-117.73471,34.04457],[-117.73492,34.04457],[-117.73655,34.04453],[-117.73749,34.0445],[-117.73842,34.04448],[-117.73853,34.04448],[-117.73962,34.04445],[-117.74092,34.04442]]]}},{"type":"Feature","properties":{"geoid":"06037402904","tract":"4029.04","households":900,"n":31,"no_internet":91,"no_internet_pct":10.1,"no_internet_rank":12,"no_internet_quartile":3,"no_internet_share":2.4,"no_computer":53,"no_computer_pct":5.9,"no_computer_rank":9,"no_computer_quartile":3,"no_computer_share":3.2},"geometry":{"type":"Polygon","coordinates":[[[-117.74852,34.02316],[-117.74887,34.02314],[-117.74843,34.02273],[-117.74809,34.0224],[-117.74736,34.02172],[-117.7467,34.02112],[-117.7465,34.02095],[-117.74606,34.02056],[-117.74542,34.02002],[-117.74538,34.02002],[-117.74506,34.01997],[-117.74499,34.01995],[-117.74469,34.01991],[-117.74439,34.01986],[-117.74434,34.01985],[-117.74431,34.01985],[-117.74409,34.01981],[-117.74407,34.01981],[-117.744,34.0198],[-117.74367,34.01976],[-117.74353,34.01974],[-117.74304,34.01968],[-117.74228,34.01956],[-117.7405,34.01928],[-117.74002,34.01921],[-117.73986,34.01918],[-117.73951,34.01912],[-117.73939,34.0191],[-117.73688,34.01871],[-117.73622,34.01861],[-117.7361,34.01859],[-117.73598,34.01858],[-117.73585,34.01855],[-117.73559,34.01868],[-117.73534,34.0188],[-117.73524,34.01885],[-117.73404,34.01944],[-117.73331,34.0198],[-117.73189,34.02051],[-117.73172,34.02059],[-117.73166,34.02061],[-117.73153,34.02068],[-117.73134,34.02077],[-117.73129,34.0208],[-117.73012,34.02137],[-117.72997,34.02224],[-117.7297,34.02385],[-117.72963,34.02422],[-117.72958,34.02455],[-117.72956,34.02462],[-117.72951,34.0249],[-117.72948,34.02514],[-117.72944,34.02533],[-117.72942,34.02546],[-117.72942,34.02548],[-117.72934,34.02592],[-117.72929,34.02629],[-117.72897,34.0279],[-117.72897,34.02792],[-117.72896,34.02804],[-117.72896,34.02812],[-117.72868,34.02977],[-117.72868,34.02984],[-117.72865,34.02992],[-117.72863,34.03004],[-117.72862,34.03009],[-117.7286,34.03019],[-117.72858,34.03029],[-117.72829,34.03199],[-117.72806,34.03335],[-117.72803,34.03353],[-117.72806,34.03354],[-117.72817,34.03357],[-117.72841,34.03361],[-117.72879,34.03371],[-117.72911,34.03376],[-117.72935,34.03378],[-117.72961,34.03379],[-117.72969,34.03378],[-117.73175,34.03374],[-117.73202,34.03373],[-117.73281,34.03371],[-117.73351,34.0337],[-117.73434,34.03368],[-117.73439,34.03368],[-117.73516,34.03366],[-117.7352,34.03366],[-117.73617,34.03363],[-117.73734,34.0336],[-117.73816,34.03358],[-117.73833,34.03357],[-117.73933,34.03355],[-117.74052,34.03353],[-117.74051,34.03299],[-117.74041,34.03027],[-117.7404,34.02989],[-117.74037,34.02913],[-117.74036,34.029],[-117.74034,34.02847],[-117.74034,34.02843],[-117.74032,34.02772],[-117.74029,34.02699],[-117.74028,34.02691],[-117.74028,34.02684],[-117.74027,34.02627],[-117.74021,34.02471],[-117.7402,34.02446],[-117.7402,34.02439],[-117.74026,34.02438],[-117.7403,34.02437],[-117.74288,34.024],[-117.74373,34.02386],[-117.74425,34.02378],[-117.74458,34.02374],[-117.74525,34.02364],[-117.74656,34.02344],[-117.74682,34.0234],[-117.74721,34.02334],[-117.74737,34.02331],[-117.74762,34.02326],[-117.74776,34.02324],[-117.74799,34.02321],[-117.74852,34.02316]]]}},{"type":"Feature","properties":{"geoid":"06037403000","tract":"4030","households":1587,"n":31,"no_internet":183,"no_internet_pct":11.5,"no_internet_rank":8,"no_internet_quartile":4,"no_internet_share":4.8,"no_computer":62,"no_computer_pct":3.9,"no_computer_rank":12,"no_computer_quartile":3,"no_computer_share":3.7},"geometry":{"type":"Polygon","coordinates":[[[-117.77341,34.0462],[-117.77352,34.0462],[-117.77303,34.04571],[-117.77258,34.04529],[-117.77209,34.04483],[-117.77158,34.04436],[-117.77074,34.04357],[-117.76931,34.04221],[-117.76891,34.04184],[-117.76286,34.03615],[-117.76257,34.03586],[-117.76232,34.03562],[-117.76224,34.03569],[-117.76166,34.03517],[-117.76149,34.03501],[-117.76105,34.0346],[-117.76042,34.03402],[-117.75937,34.033],[-117.75819,34.0319],[-117.75816,34.03186],[-117.75503,34.02896],[-117.7541,34.0281],[-117.75392,34.02788],[-117.75135,34.02547],[-117.75023,34.02441],[-117.74991,34.02412],[-117.74985,34.02412],[-117.74868,34.02417],[-117.74875,34.02428],[-117.74887,34.02457],[-117.74889,34.02466],[-117.7489,34.02471],[-117.74895,34.02493],[-117.74895,34.0251],[-117.74899,34.02605],[-117.74912,34.02968],[-117.7492,34.03211],[-117.74924,34.03301],[-117.74925,34.03331],[-117.74925,34.03336],[-117.74938,34.03693],[-117.7494,34.03749],[-117.74945,34.03884],[-117.74952,34.04057],[-117.74957,34.04217],[-117.74959,34.04242],[-117.74959,34.04267],[-117.74965,34.04421],[-117.75183,34.04415],[-117.75278,34.04413],[-117.75293,34.04412],[-117.75401,34.04409],[-117.75619,34.04404],[-117.75838,34.04398],[-117.76057,34.04393],[-117.76158,34.04391],[-117.76275,34.04388],[-117.76372,34.04386],[-117.76384,34.04386],[-117.76398,34.04386],[-117.76411,34.04389],[-117.76414,34.0439],[-117.76424,34.04394],[-117.76434,34.04398],[-117.76446,34.04407],[-117.76461,34.04423],[-117.76472,34.04431],[-117.76509,34.04458],[-117.76517,34.04463],[-117.76547,34.04478],[-117.76595,34.04494],[-117.76717,34.04522],[-117.77135,34.04623],[-117.77142,34.04624],[-117.77153,34.04625],[-117.77167,34.04626],[-117.77182,34.04626],[-117.77299,34.04623],[-117.77341,34.0462]]]}},{"type":"Feature","properties":{"geoid":"06037403317","tract":"4033.17","households":1706,"n":31,"no_internet":94,"no_internet_pct":5.5,"no_internet_rank":25,"no_internet_quartile":1,"no_internet_share":2.5,"no_computer":63,"no_computer_pct":3.7,"no_computer_rank":13,"no_computer_quartile":3,"no_computer_share":3.8},"geometry":{"type":"Polygon","coordinates":[[[-117.79807,34.04056],[-117.79812,34.04051],[-117.7979,34.04026],[-117.79757,34.03989],[-117.79717,34.03946],[-117.79698,34.03928],[-117.79679,34.03911],[-117.79676,34.03908],[-117.79654,34.0389],[-117.79637,34.03877],[-117.79633,34.03874],[-117.79629,34.0387],[-117.79608,34.03856],[-117.79567,34.03829],[-117.79542,34.03815],[-117.79531,34.03808],[-117.79507,34.03796],[-117.79473,34.03779],[-117.7945,34.03768],[-117.7943,34.0376],[-117.79423,34.03758],[-117.79377,34.03741],[-117.79357,34.03735],[-117.79351,34.03733],[-117.79341,34.0373],[-117.79301,34.03719],[-117.79259,34.0371],[-117.79248,34.03708],[-117.79242,34.03703],[-117.79237,34.037],[-117.79231,34.03696],[-117.79227,34.03693],[-117.79033,34.03571],[-117.79022,34.03563],[-117.78879,34.03473],[-117.78703,34.03361],[-117.78647,34.03325],[-117.78626,34.03312],[-117.78518,34.03243],[-117.78517,34.0282],[-117.78517,34.02727],[-117.78517,34.02669],[-117.78517,34.02614],[-117.78505,34.02613],[-117.7842,34.02579],[-117.78387,34.02577],[-117.78276,34.02596],[-117.78253,34.026],[-117.78244,34.02604],[-117.78208,34.02587],[-117.78203,34.02585],[-117.78167,34.02569],[-117.78133,34.02554],[-117.78099,34.02538],[-117.77979,34.02484],[-117.77572,34.02302],[-117.77432,34.02239],[-117.77423,34.02235],[-117.77421,34.02234],[-117.77396,34.02222],[-117.77139,34.02107],[-117.77038,34.02061],[-117.76909,34.02003],[-117.76874,34.01988],[-117.76775,34.01943],[-117.76765,34.01939],[-117.76765,34.01961],[-117.76765,34.02085],[-117.76766,34.02195],[-117.76766,34.02322],[-117.76766,34.02351],[-117.76769,34.02351],[-117.76796,34.02351],[-117.76825,34.02351],[-117.76858,34.02352],[-117.76903,34.02354],[-117.76909,34.02355],[-117.76944,34.02358],[-117.76955,34.02359],[-117.76993,34.02364],[-117.77005,34.02365],[-117.77044,34.02372],[-117.77089,34.0238],[-117.77093,34.02402],[-117.77093,34.02404],[-117.77094,34.02408],[-117.77097,34.02417],[-117.77106,34.02446],[-117.77116,34.02479],[-117.77122,34.02491],[-117.77138,34.02526],[-117.77157,34.02567],[-117.77158,34.02571],[-117.77165,34.02589],[-117.77169,34.02599],[-117.77178,34.02629],[-117.77184,34.02652],[-117.7719,34.02687],[-117.77193,34.02713],[-117.77193,34.02724],[-117.77192,34.02768],[-117.77192,34.02773],[-117.7719,34.02812],[-117.77192,34.0283],[-117.77197,34.02846],[-117.77197,34.02848],[-117.77205,34.02863],[-117.77221,34.02887],[-117.77236,34.02879],[-117.77248,34.02874],[-117.77266,34.02867],[-117.77276,34.02864],[-117.77286,34.02862],[-117.77304,34.0286],[-117.77325,34.0286],[-117.77345,34.0286],[-117.77361,34.02862],[-117.77382,34.02867],[-117.77405,34.02875],[-117.77432,34.02886],[-117.7749,34.02915],[-117.77513,34.0293],[-117.77536,34.02947],[-117.77558,34.02966],[-117.77568,34.02975],[-117.77585,34.02992],[-117.77599,34.03009],[-117.77616,34.0303],[-117.77624,34.03042],[-117.77636,34.03062],[-117.77644,34.03077],[-117.77651,34.03091],[-117.7766,34.03112],[-117.77666,34.03131],[-117.77673,34.03156],[-117.77679,34.03178],[-117.77684,34.03206],[-117.77685,34.03218],[-117.77702,34.03358],[-117.77703,34.03361],[-117.77708,34.03382],[-117.77717,34.03407],[-117.7773,34.03434],[-117.77744,34.03457],[-117.7776,34.03479],[-117.77763,34.03483],[-117.77782,34.03506],[-117.77802,34.03525],[-117.77815,34.03537],[-117.77824,34.03545],[-117.77848,34.03561],[-117.7788,34.03581],[-117.77908,34.03594],[-117.77935,34.03605],[-117.77962,34.03614],[-117.77988,34.0362],[-117.78016,34.03626],[-117.78041,34.0363],[-117.78071,34.03633],[-117.78059,34.03713],[-117.78056,34.03722],[-117.7805,34.03736],[-117.7803,34.03764],[-117.78002,34.03797],[-117.77988,34.0381],[-117.77962,34.03826],[-117.77957,34.03829],[-117.77943,34.03835],[-117.77924,34.03841],[-117.77897,34.03847],[-117.77889,34.03848],[-117.77879,34.03849],[-117.77864,34.03849],[-117.77841,34.03849],[-117.77823,34.03849],[-117.77808,34.03849],[-117.77796,34.0385],[-117.77776,34.03853],[-117.77757,34.03859],[-117.77743,34.03864],[-117.77722,34.03873],[-117.7772,34.03875],[-117.7765,34.0391],[-117.77629,34.0392],[-117.77611,34.03926],[-117.77594,34.03931],[-117.7756,34.03937],[-117.77551,34.03938],[-117.77548,34.03938],[-117.77529,34.03938],[-117.77512,34.03936],[-117.77487,34.03931],[-117.7741,34.03914],[-117.77373,34.03903],[-117.77364,34.03899],[-117.77343,34.03888],[-117.77334,34.03882],[-117.77325,34.03875],[-117.77305,34.03896],[-117.77297,34.03907],[-117.77288,34.03926],[-117.77285,34.03935],[-117.77282,34.03946],[-117.77275,34.03978],[-117.77264,34.04015],[-117.77235,34.04089],[-117.77227,34.04111],[-117.77202,34.04177],[-117.7719,34.04208],[-117.77187,34.04217],[-117.77179,34.04239],[-117.77173,34.04251],[-117.77161,34.04272],[-117.77156,34.0428],[-117.7715,34.04288],[-117.77148,34.04291],[-117.77144,34.04296],[-117.77135,34.04307],[-117.77127,34.04315],[-117.7711,34.0433],[-117.7709,34.04346],[-117.77074,34.04357],[-117.77158,34.04436],[-117.77209,34.04483],[-117.77258,34.04529],[-117.77303,34.04571],[-117.77352,34.0462],[-117.77384,34.0465],[-117.77418,34.04628],[-117.77427,34.04623],[-117.77438,34.0462],[-117.77453,34.04618],[-117.77467,34.04618],[-117.7748,34.04618],[-117.77489,34.04619],[-117.77506,34.04622],[-117.77516,34.04624],[-117.77528,34.04628],[-117.77549,34.04635],[-117.77563,34.04644],[-117.77571,34.04648],[-117.77594,34.04666],[-117.77612,34.04684],[-117.77618,34.04687],[-117.7762,34.0469],[-117.77622,34.04691],[-117.77626,34.04696],[-117.77631,34.047],[-117.77634,34.04704],[-117.77639,34.04708],[-117.77643,34.04712],[-117.77652,34.0472],[-117.77656,34.04725],[-117.77669,34.04737],[-117.77675,34.04742],[-117.77677,34.04744],[-117.77685,34.04749],[-117.7769,34.04751],[-117.77692,34.04752],[-117.77697,34.04755],[-117.77705,34.04758],[-117.77712,34.0476],[-117.77719,34.04762],[-117.77722,34.04763],[-117.77728,34.04764],[-117.77731,34.04764],[-117.77734,34.04764],[-117.7784,34.04763],[-117.77869,34.04763],[-117.77874,34.04763],[-117.77881,34.04762],[-117.77887,34.04761],[-117.77892,34.04761],[-117.77908,34.04758],[-117.7791,34.04757],[-117.77918,34.04755],[-117.7793,34.04752],[-117.77936,34.04749],[-117.7794,34.04747],[-117.77942,34.04746],[-117.77944,34.04746],[-117.77946,34.04744],[-117.77948,34.04744],[-117.7795,34.04742],[-117.77952,34.04741],[-117.77954,34.0474],[-117.77957,34.04738],[-117.77959,34.04737],[-117.77961,34.04736],[-117.77978,34.04725],[-117.77991,34.04719],[-117.77993,34.04718],[-117.78004,34.04715],[-117.7801,34.04713],[-117.78028,34.04709],[-117.78037,34.04707],[-117.7806,34.04706],[-117.78079,34.04707],[-117.78101,34.04708],[-117.78165,34.04712],[-117.78252,34.04718],[-117.78268,34.04719],[-117.78341,34.04724],[-117.784,34.04728],[-117.78427,34.04729],[-117.7849,34.04734],[-117.78508,34.04734],[-117.7858,34.04734],[-117.78592,34.04734],[-117.78618,34.04736],[-117.78644,34.04742],[-117.78667,34.0475],[-117.78682,34.04758],[-117.78689,34.04762],[-117.78758,34.04805],[-117.78792,34.04823],[-117.78796,34.04825],[-117.78811,34.04833],[-117.78868,34.04862],[-117.78944,34.04902],[-117.79075,34.04969],[-117.7915,34.05008],[-117.79197,34.05033],[-117.79212,34.05041],[-117.79224,34.0505],[-117.79227,34.05053],[-117.79237,34.05062],[-117.79247,34.05073],[-117.79261,34.05091],[-117.79275,34.05084],[-117.79417,34.05011],[-117.79452,34.0499],[-117.79474,34.04976],[-117.79488,34.04966],[-117.79509,34.04946],[-117.79519,34.04935],[-117.79521,34.04934],[-117.79529,34.04923],[-117.79543,34.04906],[-117.79558,34.04883],[-117.79569,34.04864],[-117.79578,34.04843],[-117.79579,34.04842],[-117.79588,34.04816],[-117.79592,34.04802],[-117.79594,34.04791],[-117.79598,34.04773],[-117.79598,34.0477],[-117.796,34.04747],[-117.79601,34.04722],[-117.79595,34.04649],[-117.79591,34.04578],[-117.79591,34.04565],[-117.79593,34.04539],[-117.79598,34.04512],[-117.79601,34.04501],[-117.79607,34.0448],[-117.79662,34.04342],[-117.79675,34.04308],[-117.79742,34.04139],[-117.79747,34.04128],[-117.79753,34.04117],[-117.79761,34.04107],[-117.79762,34.04106],[-117.79779,34.04085],[-117.79807,34.04056]]]}},{"type":"Feature","properties":{"geoid":"06037403318","tract":"4033.18","households":2141,"n":31,"no_internet":12,"no_internet_pct":0.6,"no_internet_rank":31,"no_internet_quartile":1,"no_internet_share":0.3,"no_computer":0,"no_computer_pct":0.0,"no_computer_rank":31,"no_computer_quartile":1,"no_computer_share":0.0},"geometry":{"type":"Polygon","coordinates":[[[-117.78059,34.03713],[-117.78071,34.03633],[-117.78041,34.0363],[-117.78016,34.03626],[-117.77988,34.0362],[-117.77962,34.03614],[-117.77935,34.03605],[-117.77908,34.03594],[-117.7788,34.03581],[-117.77848,34.03561],[-117.77824,34.03545],[-117.77815,34.03537],[-117.77802,34.03525],[-117.77782,34.03506],[-117.77763,34.03483],[-117.7776,34.03479],[-117.77744,34.03457],[-117.7773,34.03434],[-117.77717,34.03407],[-117.77708,34.03382],[-117.77703,34.03361],[-117.77702,34.03358],[-117.77685,34.03218],[-117.77684,34.03206],[-117.77679,34.03178],[-117.77673,34.03156],[-117.77666,34.03131],[-117.7766,34.03112],[-117.77651,34.03091],[-117.77644,34.03077],[-117.77636,34.03062],[-117.77624,34.03042],[-117.77616,34.0303],[-117.77599,34.03009],[-117.77585,34.02992],[-117.77568,34.02975],[-117.77558,34.02966],[-117.77536,34.02947],[-117.77513,34.0293],[-117.7749,34.02915],[-117.77432,34.02886],[-117.77405,34.02875],[-117.77382,34.02867],[-117.77361,34.02862],[-117.77345,34.0286],[-117.77325,34.0286],[-117.77304,34.0286],[-117.77286,34.02862],[-117.77276,34.02864],[-117.77266,34.02867],[-117.77248,34.02874],[-117.77236,34.02879],[-117.77221,34.02887],[-117.77205,34.02863],[-117.77197,34.02848],[-117.77197,34.02846],[-117.77192,34.0283],[-117.7719,34.02812],[-117.77192,34.02773],[-117.77192,34.02768],[-117.77193,34.02724],[-117.77193,34.02713],[-117.7719,34.02687],[-117.77184,34.02652],[-117.77178,34.02629],[-117.77169,34.02599],[-117.77165,34.02589],[-117.77158,34.02571],[-117.77157,34.02567],[-117.77138,34.02526],[-117.77122,34.02491],[-117.77116,34.02479],[-117.77106,34.02446],[-117.77097,34.02417],[-117.77094,34.02408],[-117.77093,34.02404],[-117.77093,34.02402],[-117.77089,34.0238],[-117.77044,34.02372],[-117.77005,34.02365],[-117.76993,34.02364],[-117.76955,34.02359],[-117.76944,34.02358],[-117.76909,34.02355],[-117.76903,34.02354],[-117.76858,34.02352],[-117.76825,34.02351],[-117.76796,34.02351],[-117.76769,34.02351],[-117.76766,34.02351],[-117.76763,34.02351],[-117.76659,34.02335],[-117.76623,34.02329],[-117.76487,34.02308],[-117.76092,34.02246],[-117.7594,34.02223],[-117.75807,34.02211],[-117.75787,34.02207],[-117.75676,34.0219],[-117.75645,34.02185],[-117.75595,34.02177],[-117.75552,34.02171],[-117.75534,34.02167],[-117.75524,34.02165],[-117.75517,34.02163],[-117.75457,34.0215],[-117.75455,34.0215],[-117.75444,34.02148],[-117.75432,34.02146],[-117.75373,34.02137],[-117.75347,34.02134],[-117.75202,34.02114],[-117.75199,34.02113],[-117.7519,34.02112],[-117.75187,34.02111],[-117.75171,34.02109],[-117.75155,34.02104],[-117.75128,34.02097],[-117.75036,34.02084],[-117.74886,34.02058],[-117.74884,34.02057],[-117.74789,34.02042],[-117.74662,34.02022],[-117.74654,34.02021],[-117.74649,34.0202],[-117.74642,34.02018],[-117.74634,34.02017],[-117.74625,34.02016],[-117.74617,34.02015],[-117.74608,34.02013],[-117.746,34.02012],[-117.74596,34.02011],[-117.74542,34.02002],[-117.74606,34.02056],[-117.7465,34.02095],[-117.7467,34.02112],[-117.74736,34.02172],[-117.74809,34.0224],[-117.74843,34.02273],[-117.74887,34.02314],[-117.74905,34.02332],[-117.74951,34.02376],[-117.74958,34.02382],[-117.74976,34.02399],[-117.74991,34.02412],[-117.75023,34.02441],[-117.75135,34.02547],[-117.75392,34.02788],[-117.7541,34.0281],[-117.75503,34.02896],[-117.75816,34.03186],[-117.75819,34.0319],[-117.75937,34.033],[-117.76042,34.03402],[-117.76105,34.0346],[-117.76149,34.03501],[-117.76166,34.03517],[-117.76224,34.03569],[-117.76232,34.03562],[-117.76257,34.03586],[-117.76286,34.03615],[-117.76891,34.04184],[-117.76931,34.04221],[-117.77074,34.04357],[-117.7709,34.04346],[-117.7711,34.0433],[-117.77127,34.04315],[-117.77135,34.04307],[-117.77144,34.04296],[-117.77148,34.04291],[-117.7715,34.04288],[-117.77156,34.0428],[-117.77161,34.04272],[-117.77173,34.04251],[-117.77179,34.04239],[-117.77187,34.04217],[-117.7719,34.04208],[-117.77202,34.04177],[-117.77227,34.04111],[-117.77235,34.04089],[-117.77264,34.04015],[-117.77275,34.03978],[-117.77282,34.03946],[-117.77285,34.03935],[-117.77288,34.03926],[-117.77297,34.03907],[-117.77305,34.03896],[-117.77325,34.03875],[-117.77334,34.03882],[-117.77343,34.03888],[-117.77364,34.03899],[-117.77373,34.03903],[-117.7741,34.03914],[-117.77487,34.03931],[-117.77512,34.03936],[-117.77529,34.03938],[-117.77548,34.03938],[-117.77551,34.03938],[-117.7756,34.03937],[-117.77594,34.03931],[-117.77611,34.03926],[-117.77629,34.0392],[-117.7765,34.0391],[-117.7772,34.03875],[-117.77722,34.03873],[-117.77743,34.03864],[-117.77757,34.03859],[-117.77776,34.03853],[-117.77796,34.0385],[-117.77808,34.03849],[-117.77823,34.03849],[-117.77841,34.03849],[-117.77864,34.03849],[-117.77879,34.03849],[-117.77889,34.03848],[-117.77897,34.03847],[-117.77924,34.03841],[-117.77943,34.03835],[-117.77957,34.03829],[-117.77962,34.03826],[-117.77988,34.0381],[-117.78002,34.03797],[-117.7803,34.03764],[-117.7805,34.03736],[-117.78056,34.03722],[-117.78059,34.03713]]]}},{"type":"Feature","properties":{"geoid":"06037408800","tract":"4088","households":1817,"n":31,"no_internet":156,"no_internet_pct":8.6,"no_internet_rank":16,"no_internet_quartile":3,"no_internet_share":4.1,"no_computer":16,"no_computer_pct":0.9,"no_computer_rank":28,"no_computer_quartile":1,"no_computer_share":1.0},"geometry":{"type":"Polygon","coordinates":[[[-117.75904,34.06216],[-117.759,34.06123],[-117.75897,34.06034],[-117.75891,34.05868],[-117.75891,34.05859],[-117.7589,34.0585],[-117.75887,34.05762],[-117.75884,34.05671],[-117.75881,34.05579],[-117.75877,34.05489],[-117.75874,34.05399],[-117.75763,34.05401],[-117.75763,34.05402],[-117.75656,34.05404],[-117.75546,34.05406],[-117.75543,34.05315],[-117.75539,34.05225],[-117.75537,34.05133],[-117.75533,34.05043],[-117.75424,34.05046],[-117.75316,34.05049],[-117.75205,34.05052],[-117.75097,34.05054],[-117.74987,34.05057],[-117.74965,34.05057],[-117.74898,34.05059],[-117.74878,34.05059],[-117.7477,34.05062],[-117.74773,34.05153],[-117.74776,34.05245],[-117.74776,34.05253],[-117.74779,34.05335],[-117.74783,34.05426],[-117.74786,34.05516],[-117.74732,34.05518],[-117.74677,34.05519],[-117.74568,34.05522],[-117.74458,34.05524],[-117.74435,34.05525],[-117.74349,34.05527],[-117.74242,34.0553],[-117.74155,34.05532],[-117.7413,34.05532],[-117.74134,34.05617],[-117.74134,34.05626],[-117.74135,34.05632],[-117.74137,34.05703],[-117.74137,34.05714],[-117.74141,34.05805],[-117.74141,34.05824],[-117.74142,34.05846],[-117.74143,34.05893],[-117.74143,34.05901],[-117.74143,34.05917],[-117.74143,34.05924],[-117.74146,34.05987],[-117.74149,34.06078],[-117.74153,34.06166],[-117.74157,34.06259],[-117.74159,34.06325],[-117.74161,34.0637],[-117.74161,34.06388],[-117.7438,34.06384],[-117.7438,34.06366],[-117.74387,34.06366],[-117.74431,34.06364],[-117.74485,34.06363],[-117.74569,34.06361],[-117.74597,34.06361],[-117.74816,34.06355],[-117.75035,34.0635],[-117.75031,34.06238],[-117.75211,34.06233],[-117.75248,34.06233],[-117.75334,34.0623],[-117.75348,34.06229],[-117.75357,34.06229],[-117.75466,34.06227],[-117.7563,34.06223],[-117.75685,34.06221],[-117.75738,34.0622],[-117.75904,34.06216]]]}},{"type":"Feature","properties":{"geoid":"06037409000","tract":"4090","households":2259,"n":31,"no_internet":78,"no_internet_pct":3.5,"no_internet_rank":30,"no_internet_quartile":1,"no_internet_share":2.0,"no_computer":17,"no_computer_pct":0.8,"no_computer_rank":29,"no_computer_quartile":1,"no_computer_share":1.0},"geometry":{"type":"Polygon","coordinates":[[[-117.82514,34.03418],[-117.8252,34.034],[-117.8251,34.034],[-117.82474,34.034],[-117.82474,34.03396],[-117.82457,34.03369],[-117.82481,34.03323],[-117.82478,34.03311],[-117.82474,34.03301],[-117.8247,34.03288],[-117.82488,34.03255],[-117.82494,34.03241],[-117.82487,34.03235],[-117.825,34.03216],[-117.8247,34.03227],[-117.82379,34.03344],[-117.82367,34.03333],[-117.82356,34.03322],[-117.82224,34.03197],[-117.82196,34.0317],[-117.82187,34.03162],[-117.82176,34.03151],[-117.82159,34.03133],[-117.82153,34.03126],[-117.82148,34.03121],[-117.8201,34.03261],[-117.81832,34.03442],[-117.8182,34.03434],[-117.81807,34.03425],[-117.81785,34.0341],[-117.81745,34.03383],[-117.81741,34.03381],[-117.81715,34.03364],[-117.8169,34.03347],[-117.81671,34.03334],[-117.81646,34.03317],[-117.81624,34.03303],[-117.81586,34.03277],[-117.81547,34.0325],[-117.815,34.03219],[-117.81459,34.03191],[-117.81417,34.03163],[-117.81377,34.03136],[-117.81336,34.03108],[-117.81294,34.0308],[-117.81254,34.03053],[-117.81215,34.03027],[-117.81205,34.0302],[-117.81193,34.03012],[-117.81175,34.03001],[-117.81173,34.02999],[-117.81127,34.02969],[-117.81124,34.02968],[-117.81108,34.02956],[-117.81088,34.02943],[-117.81076,34.02965],[-117.81017,34.03064],[-117.80994,34.03099],[-117.80975,34.03091],[-117.80934,34.03152],[-117.80856,34.03266],[-117.80826,34.03309],[-117.8081,34.03336],[-117.80756,34.03413],[-117.80691,34.0351],[-117.80586,34.03653],[-117.80559,34.03691],[-117.80572,34.03703],[-117.80353,34.03967],[-117.80292,34.0403],[-117.80291,34.04031],[-117.80244,34.04097],[-117.80225,34.04136],[-117.80222,34.04143],[-117.80202,34.04173],[-117.80194,34.04196],[-117.80174,34.04246],[-117.80171,34.04254],[-117.80163,34.04288],[-117.80134,34.04269],[-117.80131,34.04267],[-117.80108,34.04252],[-117.80082,34.04236],[-117.79993,34.0418],[-117.79986,34.04175],[-117.79967,34.04163],[-117.79842,34.04084],[-117.7982,34.0406],[-117.79817,34.04056],[-117.79813,34.04053],[-117.79812,34.04051],[-117.79807,34.04056],[-117.79779,34.04085],[-117.79762,34.04106],[-117.79761,34.04107],[-117.79753,34.04117],[-117.79747,34.04128],[-117.79742,34.04139],[-117.79675,34.04308],[-117.79662,34.04342],[-117.79607,34.0448],[-117.79601,34.04501],[-117.79598,34.04512],[-117.79593,34.04539],[-117.79591,34.04565],[-117.79591,34.04578],[-117.79595,34.04649],[-117.79601,34.04722],[-117.796,34.04747],[-117.79598,34.0477],[-117.79598,34.04773],[-117.79594,34.04791],[-117.79592,34.04802],[-117.79588,34.04816],[-117.79579,34.04842],[-117.79578,34.04843],[-117.79569,34.04864],[-117.79558,34.04883],[-117.79543,34.04906],[-117.79529,34.04923],[-117.79521,34.04934],[-117.79519,34.04935],[-117.79509,34.04946],[-117.79488,34.04966],[-117.79474,34.04976],[-117.79452,34.0499],[-117.79417,34.05011],[-117.79275,34.05084],[-117.79261,34.05091],[-117.79247,34.05073],[-117.79237,34.05062],[-117.79227,34.05053],[-117.79224,34.0505],[-117.79212,34.05041],[-117.79197,34.05033],[-117.7915,34.05008],[-117.79075,34.04969],[-117.78944,34.04902],[-117.78868,34.04862],[-117.78811,34.04833],[-117.78796,34.04825],[-117.78792,34.04823],[-117.78758,34.04805],[-117.78689,34.04762],[-117.78682,34.04758],[-117.78667,34.0475],[-117.78644,34.04742],[-117.78618,34.04736],[-117.78592,34.04734],[-117.7858,34.04734],[-117.78508,34.04734],[-117.7849,34.04734],[-117.78427,34.04729],[-117.784,34.04728],[-117.78341,34.04724],[-117.78268,34.04719],[-117.78252,34.04718],[-117.78165,34.04712],[-117.78101,34.04708],[-117.78079,34.04707],[-117.7806,34.04706],[-117.78037,34.04707],[-117.78028,34.04709],[-117.7801,34.04713],[-117.78004,34.04715],[-117.77993,34.04718],[-117.77991,34.04719],[-117.77978,34.04725],[-117.77961,34.04736],[-117.77959,34.04737],[-117.77957,34.04738],[-117.77954,34.0474],[-117.77952,34.04741],[-117.7795,34.04742],[-117.77948,34.04744],[-117.77946,34.04744],[-117.77944,34.04746],[-117.77942,34.04746],[-117.7794,34.04747],[-117.77936,34.04749],[-117.7793,34.04752],[-117.77918,34.04755],[-117.7791,34.04757],[-117.77908,34.04758],[-117.77892,34.04761],[-117.77887,34.04761],[-117.77881,34.04762],[-117.77874,34.04763],[-117.77869,34.04763],[-117.7784,34.04763],[-117.77734,34.04764],[-117.77731,34.04764],[-117.77728,34.04764],[-117.77722,34.04763],[-117.77719,34.04762],[-117.77712,34.0476],[-117.77705,34.04758],[-117.77697,34.04755],[-117.77692,34.04752],[-117.7769,34.04751],[-117.77685,34.04749],[-117.77677,34.04744],[-117.77675,34.04742],[-117.77669,34.04737],[-117.77656,34.04725],[-117.77652,34.0472],[-117.77643,34.04712],[-117.77639,34.04708],[-117.77634,34.04704],[-117.77631,34.047],[-117.77626,34.04696],[-117.77622,34.04691],[-117.7762,34.0469],[-117.77618,34.04687],[-117.77612,34.04684],[-117.77594,34.04666],[-117.77571,34.04648],[-117.77563,34.04644],[-117.77549,34.04635],[-117.77528,34.04628],[-117.77516,34.04624],[-117.77506,34.04622],[-117.77489,34.04619],[-117.7748,34.04618],[-117.77467,34.04618],[-117.77453,34.04618],[-117.77438,34.0462],[-117.77427,34.04623],[-117.77418,34.04628],[-117.77384,34.0465],[-117.77352,34.0462],[-117.77341,34.0462],[-117.77299,34.04623],[-117.77182,34.04626],[-117.77185,34.04708],[-117.77186,34.04722],[-117.77187,34.04784],[-117.7719,34.04861],[-117.77191,34.04889],[-117.77193,34.04905],[-117.77204,34.04939],[-117.77227,34.05015],[-117.77249,34.05091],[-117.77272,34.05168],[-117.77281,34.05199],[-117.77288,34.0522],[-117.7729,34.05243],[-117.77336,34.0538],[-117.77347,34.05419],[-117.77354,34.05444],[-117.77338,34.05446],[-117.77332,34.05447],[-117.7727,34.05452],[-117.7723,34.05455],[-117.77157,34.05457],[-117.76969,34.05462],[-117.76975,34.05644],[-117.76978,34.05734],[-117.76761,34.05739],[-117.76764,34.05829],[-117.76765,34.05838],[-117.76768,34.05853],[-117.76797,34.05882],[-117.76796,34.05883],[-117.76794,34.05887],[-117.76794,34.0589],[-117.76795,34.05923],[-117.76798,34.05991],[-117.76794,34.06004],[-117.76788,34.06016],[-117.76785,34.06025],[-117.76783,34.06051],[-117.76781,34.06105],[-117.76781,34.06195],[-117.76822,34.06194],[-117.76831,34.06193],[-117.76953,34.06191],[-117.77075,34.06188],[-117.77263,34.06183],[-117.77668,34.06172],[-117.77885,34.06167],[-117.78185,34.06159],[-117.78321,34.06156],[-117.78601,34.06149],[-117.78627,34.06148],[-117.78677,34.06146],[-117.78754,34.06171],[-117.78827,34.0619],[-117.79029,34.0625],[-117.79163,34.06289],[-117.79191,34.06302],[-117.79327,34.06349],[-117.79396,34.06372],[-117.79607,34.06445],[-117.79784,34.06505],[-117.79769,34.0648],[-117.79756,34.06458],[-117.79751,34.06449],[-117.7972,34.06396],[-117.79696,34.06354],[-117.79655,34.06286],[-117.7956,34.06126],[-117.79527,34.06071],[-117.79372,34.05812],[-117.7937,34.05789],[-117.79694,34.05781],[-117.79827,34.05778],[-117.7996,34.05769],[-117.80018,34.05761],[-117.80077,34.05749],[-117.80086,34.05748],[-117.80144,34.05736],[-117.80157,34.05732],[-117.80202,34.0572],[-117.80208,34.05718],[-117.80255,34.05702],[-117.80333,34.05674],[-117.8037,34.05658],[-117.80391,34.05648],[-117.8042,34.05635],[-117.80435,34.05628],[-117.80472,34.05609],[-117.80569,34.05551],[-117.80619,34.05517],[-117.80656,34.0549],[-117.80695,34.0546],[-117.80733,34.05422],[-117.80784,34.05372],[-117.80821,34.0533],[-117.80877,34.05261],[-117.80923,34.05198],[-117.80982,34.05123],[-117.81045,34.05045],[-117.81091,34.04984],[-117.81141,34.04918],[-117.812,34.04841],[-117.81201,34.04839],[-117.81231,34.0485],[-117.81367,34.04676],[-117.81376,34.04664],[-117.81377,34.04663],[-117.81422,34.04602],[-117.81461,34.04552],[-117.81529,34.04465],[-117.81548,34.04445],[-117.81596,34.04381],[-117.81604,34.04371],[-117.81614,34.04361],[-117.81617,34.04358],[-117.81619,34.04355],[-117.81631,34.04345],[-117.81647,34.0433],[-117.81689,34.04298],[-117.81747,34.04258],[-117.81805,34.04218],[-117.8185,34.04186],[-117.81907,34.04147],[-117.81921,34.04137],[-117.81934,34.04127],[-117.81942,34.04122],[-117.82022,34.04064],[-117.82093,34.04012],[-117.82127,34.03988],[-117.82157,34.0397],[-117.82203,34.03944],[-117.82263,34.03909],[-117.82318,34.03877],[-117.82352,34.03851],[-117.82361,34.03845],[-117.82377,34.03833],[-117.82402,34.03802],[-117.82413,34.03789],[-117.82432,34.03757],[-117.82439,34.03746],[-117.82452,34.03713],[-117.82458,34.03694],[-117.8246,34.03688],[-117.82467,34.03661],[-117.82481,34.03662],[-117.8251,34.03663],[-117.82511,34.03655],[-117.82512,34.03643],[-117.82513,34.03631],[-117.82513,34.03617],[-117.82512,34.03605],[-117.82511,34.03575],[-117.82511,34.03566],[-117.8251,34.03517],[-117.82509,34.03489],[-117.82508,34.03465],[-117.8251,34.03442],[-117.82512,34.03432],[-117.82514,34.03418]]]}}]}